{
"type": "FeatureCollection",
"name": "komunikace",
"crs": { "type": "name", "properties": { "name": "urn:ogc:def:crs:EPSG::5514" } },
"features": [
{ "type": "Feature", "properties": { "OBJECTID": 5003, "TRIDA": 5, "CISLO_SILNICE": "03551", "MEZINARODNI_OZNACENI": "N_A", "PRUHY": 2, "SHAPE_Length": 1129.23871639505 }, "geometry": { "type": "MultiLineString", "coordinates": [ [ [ -545857.162569910287857, -1122651.037640377879143 ], [ -545833.243959240382537, -1122682.488674016902223 ] ] ] } },
{ "type": "Feature", "properties": { "OBJECTID": 5005, "TRIDA": 5, "CISLO_SILNICE": "03551", "MEZINARODNI_OZNACENI": "N_A", "PRUHY": 2, "SHAPE_Length": 967.71547252723599 }, "geometry": { "type": "MultiLineString", "coordinates": [ [ [ -546155.607683594222181, -1121475.131250584730878 ], [ -546484.994184896349907, -1122046.563770215958357 ] ] ] } },
{ "type": "Feature", "properties": { "OBJECTID": 5006, "TRIDA": 5, "CISLO_SILNICE": "03551", "MEZINARODNI_OZNACENI": "N_A", "PRUHY": 2, "SHAPE_Length": 653.70686220400557 }, "geometry": { "type": "MultiLineString", "coordinates": [ [ [ -546341.47399990260601, -1122243.517365641891956 ], [ -546269.477467887103558, -1122343.621387623250484 ], [ -546222.426876731216908, -1122443.227035608142614 ], [ -545857.162569910287857, -1122651.037640377879143 ] ] ] } },
{ "type": "Feature", "properties": { "OBJECTID": 5007, "TRIDA": 5, "CISLO_SILNICE": "03551", "MEZINARODNI_OZNACENI": "N_A", "PRUHY": 2, "SHAPE_Length": 243.69809652896512 }, "geometry": { "type": "MultiLineString", "coordinates": [ [ [ -546484.994184896349907, -1122046.563770215958357 ], [ -546341.47399990260601, -1122243.517365641891956 ] ] ] } },
{ "type": "Feature", "properties": { "OBJECTID": 5292, "TRIDA": 4, "CISLO_SILNICE": "435", "MEZINARODNI_OZNACENI": "N_A", "PRUHY": 2, "SHAPE_Length": 113.55012065937268 }, "geometry": { "type": "MultiLineString", "coordinates": [ [ [ -546754.165035787969828, -1124153.901181392371655 ], [ -546781.285032782703638, -1124043.637245018035173 ] ] ] } },
{ "type": "Feature", "properties": { "OBJECTID": 5293, "TRIDA": 4, "CISLO_SILNICE": "435", "MEZINARODNI_OZNACENI": "N_A", "PRUHY": 2, "SHAPE_Length": 835.10267477174511 }, "geometry": { "type": "MultiLineString", "coordinates": [ [ [ -546593.06241188570857, -1124973.317084327340126 ], [ -546754.165035787969828, -1124153.901181392371655 ] ] ] } },
{ "type": "Feature", "properties": { "OBJECTID": 5294, "TRIDA": 4, "CISLO_SILNICE": "435", "MEZINARODNI_OZNACENI": "N_A", "PRUHY": 2, "SHAPE_Length": 1117.037962918597 }, "geometry": { "type": "MultiLineString", "coordinates": [ [ [ -546781.285032782703638, -1124043.637245018035173 ], [ -546809.975239641964436, -1123858.469303961843252 ], [ -546865.978227268904448, -1122930.497102804481983 ] ] ] } },
{ "type": "Feature", "properties": { "OBJECTID": 5295, "TRIDA": 4, "CISLO_SILNICE": "435", "MEZINARODNI_OZNACENI": "N_A", "PRUHY": 2, "SHAPE_Length": 1220.4254040139531 }, "geometry": { "type": "MultiLineString", "coordinates": [ [ [ -546639.677667945623398, -1126131.575265146791935 ], [ -546592.753329206258059, -1125928.422204580157995 ], [ -546542.725066941231489, -1125581.385219346731901 ], [ -546697.733697984367609, -1125203.987409174442291 ], [ -546593.06241188570857, -1124973.317084327340126 ] ] ] } },
{ "type": "Feature", "properties": { "OBJECTID": 5296, "TRIDA": 4, "CISLO_SILNICE": "435", "MEZINARODNI_OZNACENI": "N_A", "PRUHY": 2, "SHAPE_Length": 2877.9460901488806 }, "geometry": { "type": "MultiLineString", "coordinates": [ [ [ -547767.309073027223349, -1128724.745596371591091 ], [ -547601.866369504481554, -1127979.779329117387533 ], [ -547216.683692131191492, -1127581.959884956479073 ], [ -546996.683704655617476, -1127009.491613607853651 ], [ -546742.837766751646996, -1126399.965202059596777 ], [ -546639.677667945623398, -1126131.575265146791935 ] ] ] } },
{ "type": "Feature", "properties": { "OBJECTID": 5533, "TRIDA": 4, "CISLO_SILNICE": "446", "MEZINARODNI_OZNACENI": "N_A", "PRUHY": 2, "SHAPE_Length": 5011.6447868480036 }, "geometry": { "type": "MultiLineString", "coordinates": [ [ [ -546902.811546995653771, -1119783.785676006460562 ], [ -546926.288465395569801, -1120067.668024074286222 ], [ -546940.654348958283663, -1120456.214813217520714 ], [ -547122.175114393234253, -1120847.688108932226896 ] ] ] } },
{ "type": "Feature", "properties": { "OBJECTID": 5534, "TRIDA": 4, "CISLO_SILNICE": "446", "MEZINARODNI_OZNACENI": "N_A", "PRUHY": 2, "SHAPE_Length": 262.19435652391951 }, "geometry": { "type": "MultiLineString", "coordinates": [ [ [ -547122.175114393234253, -1120847.688108932226896 ], [ -547001.672683279961348, -1121080.550825331360102 ] ] ] } },
{ "type": "Feature", "properties": { "OBJECTID": 5606, "TRIDA": 5, "CISLO_SILNICE": "4465", "MEZINARODNI_OZNACENI": "N_A", "PRUHY": 2, "SHAPE_Length": 1992.8469955732867 }, "geometry": { "type": "MultiLineString", "coordinates": [ [ [ -550861.148991420865059, -1118782.239782780408859 ], [ -549801.908677626401186, -1117094.208649951964617 ] ] ] } },
{ "type": "Feature", "properties": { "OBJECTID": 5625, "TRIDA": 4, "CISLO_SILNICE": "448", "MEZINARODNI_OZNACENI": "N_A", "PRUHY": 2, "SHAPE_Length": 3366.4849289518079 }, "geometry": { "type": "MultiLineString", "coordinates": [ [ [ -555563.994062449783087, -1121100.766928073018789 ], [ -554936.749529931694269, -1121188.439714513719082 ], [ -554191.18343273177743, -1121486.342332534492016 ], [ -553488.337625961750746, -1121635.109763544052839 ], [ -552888.094172183424234, -1121677.831625577062368 ], [ -552285.271187704056501, -1121583.985043570399284 ] ] ] } },
{ "type": "Feature", "properties": { "OBJECTID": 5632, "TRIDA": 4, "CISLO_SILNICE": "448", "MEZINARODNI_OZNACENI": "N_A", "PRUHY": 2, "SHAPE_Length": 1413.4193864310073 }, "geometry": { "type": "MultiLineString", "coordinates": [ [ [ -552285.271187704056501, -1121583.985043570399284 ], [ -550884.14055185392499, -1121398.00842347741127 ] ] ] } },
{ "type": "Feature", "properties": { "OBJECTID": 5633, "TRIDA": 4, "CISLO_SILNICE": "448", "MEZINARODNI_OZNACENI": "N_A", "PRUHY": 2, "SHAPE_Length": 913.24599408882068 }, "geometry": { "type": "MultiLineString", "coordinates": [ [ [ -547872.670294534415007, -1121274.458646688610315 ], [ -547574.938283167779446, -1121112.124756131321192 ], [ -547001.672683279961348, -1121080.550825331360102 ] ] ] } },
{ "type": "Feature", "properties": { "OBJECTID": 5635, "TRIDA": 4, "CISLO_SILNICE": "448", "MEZINARODNI_OZNACENI": "N_A", "PRUHY": 2, "SHAPE_Length": 2407.6079041393223 }, "geometry": { "type": "MultiLineString", "coordinates": [ [ [ -550884.14055185392499, -1121398.00842347741127 ], [ -550075.143354579806328, -1121201.80553225427866 ], [ -549185.658408116549253, -1121077.066049084067345 ], [ -548508.78235675022006, -1121065.816836517304182 ] ] ] } },
{ "type": "Feature", "properties": { "OBJECTID": 5637, "TRIDA": 4, "CISLO_SILNICE": "448", "MEZINARODNI_OZNACENI": "N_A", "PRUHY": 2, "SHAPE_Length": 694.99697590468645 }, "geometry": { "type": "MultiLineString", "coordinates": [ [ [ -548508.78235675022006, -1121065.816836517304182 ], [ -548140.079199526458979, -1121088.725974902510643 ], [ -547872.670294534415007, -1121274.458646688610315 ] ] ] } },
{ "type": "Feature", "properties": { "OBJECTID": 5638, "TRIDA": 4, "CISLO_SILNICE": "448", "MEZINARODNI_OZNACENI": "N_A", "PRUHY": 2, "SHAPE_Length": 1104.1705725137413 }, "geometry": { "type": "MultiLineString", "coordinates": [ [ [ -547001.672683279961348, -1121080.550825331360102 ], [ -546421.926300626248121, -1120982.575806759297848 ], [ -546334.627836186438799, -1120984.010470243170857 ] ] ] } },
{ "type": "Feature", "properties": { "OBJECTID": 5844, "TRIDA": 4, "CISLO_SILNICE": "570", "MEZINARODNI_OZNACENI": "N_A", "PRUHY": 2, "SHAPE_Length": 2848.613393645106 }, "geometry": { "type": "MultiLineString", "coordinates": [ [ [ -546593.06241188570857, -1124973.317084327340126 ], [ -546471.323300804942846, -1124954.197788543999195 ], [ -545638.501393849262968, -1124821.180453945882618 ] ] ] } },
{ "type": "Feature", "properties": { "OBJECTID": 5847, "TRIDA": 4, "CISLO_SILNICE": "570", "MEZINARODNI_OZNACENI": "N_A", "PRUHY": 2, "SHAPE_Length": 2083.0656675870014 }, "geometry": { "type": "MultiLineString", "coordinates": [ [ [ -552730.60903799533844, -1123556.393895138055086 ], [ -552030.365637540817261, -1123637.396258257329464 ], [ -551339.367301672697067, -1124018.489963863044977 ], [ -551117.780864398926497, -1124286.003817267715931 ], [ -550975.939330138266087, -1124481.66380563378334 ] ] ] } },
{ "type": "Feature", "properties": { "OBJECTID": 5848, "TRIDA": 4, "CISLO_SILNICE": "570", "MEZINARODNI_OZNACENI": "N_A", "PRUHY": 2, "SHAPE_Length": 2978.7243307486337 }, "geometry": { "type": "MultiLineString", "coordinates": [ [ [ -555441.247900627553463, -1124626.641394045203924 ], [ -554408.409359499812126, -1124426.762514408677816 ], [ -553343.563997194170952, -1123883.663733322173357 ], [ -552967.63267083466053, -1123562.764665428549051 ], [ -552730.60903799533844, -1123556.393895138055086 ] ] ] } },
{ "type": "Feature", "properties": { "OBJECTID": 5849, "TRIDA": 4, "CISLO_SILNICE": "570", "MEZINARODNI_OZNACENI": "N_A", "PRUHY": 2, "SHAPE_Length": 4274.4363248813261 }, "geometry": { "type": "MultiLineString", "coordinates": [ [ [ -550527.700468230992556, -1125211.752020113170147 ], [ -550380.544807355850935, -1125276.162929747253656 ], [ -550108.705542661249638, -1125240.314926818013191 ], [ -549680.624983288347721, -1124720.382678393274546 ], [ -549044.888360481709242, -1124134.488169752061367 ], [ -548829.542948618531227, -1124064.987174786627293 ], [ -548393.018669527024031, -1124195.60988087952137 ], [ -547603.351188730448484, -1124096.130485311150551 ], [ -546781.285032782703638, -1124043.637245018035173 ] ] ] } },
{ "type": "Feature", "properties": { "OBJECTID": 5850, "TRIDA": 4, "CISLO_SILNICE": "570", "MEZINARODNI_OZNACENI": "N_A", "PRUHY": 2, "SHAPE_Length": 856.96202816390291 }, "geometry": { "type": "MultiLineString", "coordinates": [ [ [ -550975.939330138266087, -1124481.66380563378334 ], [ -550853.375125464051962, -1124663.854250211268663 ], [ -550527.700468230992556, -1125211.752020113170147 ] ] ] } },
{ "type": "Feature", "properties": { "OBJECTID": 5852, "TRIDA": 5, "CISLO_SILNICE": "5704", "MEZINARODNI_OZNACENI": "N_A", "PRUHY": 2, "SHAPE_Length": 949.46352205558185 }, "geometry": { "type": "MultiLineString", "coordinates": [ [ [ -553105.029351685196161, -1127711.87082777172327 ], [ -552843.509082924574614, -1127561.845063544809818 ], [ -552268.255574997514486, -1127487.065739672631025 ], [ -552200.505175437778234, -1127491.138820752501488 ] ] ] } },
{ "type": "Feature", "properties": { "OBJECTID": 5853, "TRIDA": 5, "CISLO_SILNICE": "5704", "MEZINARODNI_OZNACENI": "N_A", "PRUHY": 2, "SHAPE_Length": 2931.9101551174717 }, "geometry": { "type": "MultiLineString", "coordinates": [ [ [ -552200.505175437778234, -1127491.138820752501488 ], [ -551830.507887285202742, -1127370.282952722162008 ], [ -551636.309144038707018, -1127168.443231608718634 ], [ -550796.740177262574434, -1125924.404653608798981 ], [ -550527.700468230992556, -1125211.752020113170147 ] ] ] } },
{ "type": "Feature", "properties": { "OBJECTID": 5854, "TRIDA": 5, "CISLO_SILNICE": "5707", "MEZINARODNI_OZNACENI": "N_A", "PRUHY": 2, "SHAPE_Length": 761.63529676254734 }, "geometry": { "type": "MultiLineString", "coordinates": [ [ [ -553856.517088860273361, -1127168.238224226981401 ], [ -553548.536105375736952, -1127528.291431989520788 ], [ -553480.591699682176113, -1127598.044058673083782 ], [ -553300.470362830907106, -1127659.929396104067564 ] ] ] } },
{ "type": "Feature", "properties": { "OBJECTID": 5855, "TRIDA": 5, "CISLO_SILNICE": "5707", "MEZINARODNI_OZNACENI": "N_A", "PRUHY": 2, "SHAPE_Length": 2246.4634648166993 }, "geometry": { "type": "MultiLineString", "coordinates": [ [ [ -553105.029351685196161, -1127711.87082777172327 ], [ -552677.316722933202982, -1128519.597468223422766 ], [ -552431.707576513290405, -1128956.087695833295584 ], [ -552315.853783831000328, -1129125.997604507952929 ], [ -552287.428829282522202, -1129513.909639105200768 ], [ -552327.981175374239683, -1129747.450067304074764 ] ] ] } },
{ "type": "Feature", "properties": { "OBJECTID": 5856, "TRIDA": 5, "CISLO_SILNICE": "5707", "MEZINARODNI_OZNACENI": "N_A", "PRUHY": 2, "SHAPE_Length": 202.22537219979014 }, "geometry": { "type": "MultiLineString", "coordinates": [ [ [ -553300.470362830907106, -1127659.929396104067564 ], [ -553105.029351685196161, -1127711.87082777172327 ] ] ] } },
{ "type": "Feature", "properties": { "OBJECTID": 5857, "TRIDA": 5, "CISLO_SILNICE": "5709", "MEZINARODNI_OZNACENI": "N_A", "PRUHY": 2, "SHAPE_Length": 4752.2757228481842 }, "geometry": { "type": "MultiLineString", "coordinates": [ [ [ -552200.505175437778234, -1127491.138820752501488 ], [ -552525.418825708329678, -1126976.593516729772091 ], [ -552437.751801826059818, -1126690.240462806075811 ], [ -552885.010330304503441, -1126204.012720193713903 ], [ -553422.370650924742222, -1125588.294352289289236 ], [ -553631.07532536610961, -1124928.958306450396776 ], [ -553533.08895630016923, -1124700.619722291827202 ], [ -553010.442018982023001, -1124203.483980428427458 ], [ -552730.60903799533844, -1123556.393895138055086 ] ] ] } },
{ "type": "Feature", "properties": { "OBJECTID": 5858, "TRIDA": 5, "CISLO_SILNICE": "5709", "MEZINARODNI_OZNACENI": "N_A", "PRUHY": 2, "SHAPE_Length": 2166.6865298631228 }, "geometry": { "type": "MultiLineString", "coordinates": [ [ [ -552730.60903799533844, -1123556.393895138055086 ], [ -552416.70187434181571, -1123308.958017695695162 ], [ -552285.376310739666224, -1122935.171760056167841 ], [ -552236.410629328340292, -1122482.420465648174286 ], [ -552341.739196337759495, -1121747.796593807637691 ], [ -552285.271187704056501, -1121583.985043570399284 ] ] ] } },
{ "type": "Feature", "properties": { "OBJECTID": 5859, "TRIDA": 5, "CISLO_SILNICE": "5709", "MEZINARODNI_OZNACENI": "N_A", "PRUHY": 2, "SHAPE_Length": 2990.5147570050995 }, "geometry": { "type": "MultiLineString", "coordinates": [ [ [ -552285.271187704056501, -1121583.985043570399284 ], [ -552014.642060283571482, -1120727.288705375045538 ], [ -552030.338396355509758, -1120162.812229469418526 ], [ -551407.137608252465725, -1118979.776968214660883 ], [ -551314.808150719851255, -1118813.431463871151209 ] ] ] } },
{ "type": "Feature", "properties": { "OBJECTID": 5860, "TRIDA": 5, "CISLO_SILNICE": "5709", "MEZINARODNI_OZNACENI": "N_A", "PRUHY": 2, "SHAPE_Length": 273.99393063878131 }, "geometry": { "type": "MultiLineString", "coordinates": [ [ [ -551314.808150719851255, -1118813.431463871151209 ], [ -551227.676171656697989, -1118689.852874286472797 ], [ -551155.003499448299408, -1118590.88198084384203 ] ] ] } },
{ "type": "Feature", "properties": { "OBJECTID": 5861, "TRIDA": 4, "CISLO_SILNICE": "635", "MEZINARODNI_OZNACENI": "N_A", "PRUHY": 2, "SHAPE_Length": 1119.3889042450819 }, "geometry": { "type": "MultiLineString", "coordinates": [ [ [ -547122.175114393234253, -1120847.688108932226896 ], [ -547296.807003151625395, -1120597.679161831736565 ], [ -547881.778978571295738, -1120375.750114265829325 ], [ -548062.037394464015961, -1120431.805663410574198 ] ] ] } },
{ "type": "Feature", "properties": { "OBJECTID": 5863, "TRIDA": 4, "CISLO_SILNICE": "635", "MEZINARODNI_OZNACENI": "N_A", "PRUHY": 2, "SHAPE_Length": 3935.2004710518477 }, "geometry": { "type": "MultiLineString", "coordinates": [ [ [ -551155.003499448299408, -1118590.88198084384203 ], [ -552051.774066008627415, -1117868.670136012136936 ], [ -552811.246439080685377, -1117020.247958622872829 ], [ -553226.461824804544449, -1116742.340719893574715 ], [ -554011.427756410092115, -1115908.151712600141764 ] ] ] } },
{ "type": "Feature", "properties": { "OBJECTID": 5864, "TRIDA": 4, "CISLO_SILNICE": "635", "MEZINARODNI_OZNACENI": "N_A", "PRUHY": 2, "SHAPE_Length": 591.07296956345715 }, "geometry": { "type": "MultiLineString", "coordinates": [ [ [ -548296.25186737254262, -1120218.837044969201088 ], [ -548494.220022331923246, -1119863.605527013540268 ], [ -548677.087305586785078, -1119887.351284105330706 ] ] ] } },
{ "type": "Feature", "properties": { "OBJECTID": 5865, "TRIDA": 4, "CISLO_SILNICE": "635", "MEZINARODNI_OZNACENI": "N_A", "PRUHY": 2, "SHAPE_Length": 350.66833368589158 }, "geometry": { "type": "MultiLineString", "coordinates": [ [ [ -550861.148991420865059, -1118782.239782780408859 ], [ -551155.003499448299408, -1118590.88198084384203 ] ] ] } },
{ "type": "Feature", "properties": { "OBJECTID": 5866, "TRIDA": 4, "CISLO_SILNICE": "635", "MEZINARODNI_OZNACENI": "N_A", "PRUHY": 2, "SHAPE_Length": 401.7318462276595 }, "geometry": { "type": "MultiLineString", "coordinates": [ [ [ -548062.037394464015961, -1120431.805663410574198 ], [ -548160.441985573619604, -1120470.696995686739683 ], [ -548303.331432349979877, -1120257.255847454071045 ], [ -548296.25186737254262, -1120218.837044969201088 ] ] ] } },
{ "type": "Feature", "properties": { "OBJECTID": 5867, "TRIDA": 4, "CISLO_SILNICE": "635", "MEZINARODNI_OZNACENI": "N_A", "PRUHY": 2, "SHAPE_Length": 2525.9085859229644 }, "geometry": { "type": "MultiLineString", "coordinates": [ [ [ -548677.087305586785078, -1119887.351284105330706 ], [ -549707.994341902434826, -1119709.610931631177664 ], [ -550861.148991420865059, -1118782.239782780408859 ] ] ] } },
{ "type": "Feature", "properties": { "OBJECTID": 5887, "TRIDA": 6, "CISLO_SILNICE": "N_A", "MEZINARODNI_OZNACENI": "N_A", "PRUHY": 2, "SHAPE_Length": 254.44481947746547 }, "geometry": { "type": "MultiLineString", "coordinates": [ [ [ -547868.862116519361734, -1122301.835854023694992 ], [ -547750.087055955082178, -1122076.814408052712679 ] ] ] } },
{ "type": "Feature", "properties": { "OBJECTID": 5888, "TRIDA": 6, "CISLO_SILNICE": "N_A", "MEZINARODNI_OZNACENI": "N_A", "PRUHY": 2, "SHAPE_Length": 1508.6199972131019 }, "geometry": { "type": "MultiLineString", "coordinates": [ [ [ -547750.087055955082178, -1122076.814408052712679 ], [ -547295.65012588724494, -1121731.558227997273207 ], [ -546893.696482606232166, -1122070.881766825914383 ], [ -546684.250882845371962, -1122080.888711489737034 ], [ -546484.994184896349907, -1122046.563770215958357 ] ] ] } },
{ "type": "Feature", "properties": { "OBJECTID": 5949, "TRIDA": 3, "CISLO_SILNICE": "35", "MEZINARODNI_OZNACENI": "E442", "PRUHY": 4, "SHAPE_Length": 2429.9852779902235 }, "geometry": { "type": "MultiLineString", "coordinates": [ [ [ -549275.482549712061882, -1120092.080142471939325 ], [ -550743.799727510660887, -1119353.122128196060658 ], [ -551196.874947555363178, -1118941.053972493857145 ], [ -551314.808150719851255, -1118813.431463871151209 ] ] ] } },
{ "type": "Feature", "properties": { "OBJECTID": 5950, "TRIDA": 3, "CISLO_SILNICE": "35", "MEZINARODNI_OZNACENI": "E442", "PRUHY": 4, "SHAPE_Length": 220.12112301567814 }, "geometry": { "type": "MultiLineString", "coordinates": [ [ [ -551314.808150719851255, -1118813.431463871151209 ], [ -551464.537579745054245, -1118652.079652968794107 ] ] ] } },
{ "type": "Feature", "properties": { "OBJECTID": 5953, "TRIDA": 3, "CISLO_SILNICE": "35H", "MEZINARODNI_OZNACENI": "E442", "PRUHY": 4, "SHAPE_Length": 2605.0194698116165 }, "geometry": { "type": "MultiLineString", "coordinates": [ [ [ -549275.482549712061882, -1120092.080142471939325 ], [ -550413.599366426467896, -1120170.203671094030142 ], [ -550695.631374638527632, -1120277.910777751356363 ], [ -550898.400963135063648, -1120745.504327222704887 ], [ -550884.14055185392499, -1121398.00842347741127 ] ] ] } },
{ "type": "Feature", "properties": { "OBJECTID": 5956, "TRIDA": 1, "CISLO_SILNICE": "D35", "MEZINARODNI_OZNACENI": "E442", "PRUHY": 4, "SHAPE_Length": 7894.6412345485778 }, "geometry": { "type": "MultiLineString", "coordinates": [ [ [ -551464.537579745054245, -1118652.079652968794107 ], [ -554716.195638354867697, -1115593.497861068695784 ], [ -555330.524705804884434, -1114752.333887968212366 ], [ -555415.90928670600988, -1114655.918958977563307 ] ] ] } },
{ "type": "Feature", "properties": { "OBJECTID": 5961, "TRIDA": 1, "CISLO_SILNICE": "D35", "MEZINARODNI_OZNACENI": "E442", "PRUHY": 4, "SHAPE_Length": 2231.1660800309623 }, "geometry": { "type": "MultiLineString", "coordinates": [ [ [ -550884.14055185392499, -1121398.00842347741127 ], [ -550487.111276689916849, -1122294.070893839001656 ], [ -550210.141239508986473, -1123514.11173377931118 ] ] ] } },
{ "type": "Feature", "properties": { "OBJECTID": 5964, "TRIDA": 1, "CISLO_SILNICE": "D35", "MEZINARODNI_OZNACENI": "E442#E462", "PRUHY": 4, "SHAPE_Length": 398.98088830843307 }, "geometry": { "type": "MultiLineString", "coordinates": [ [ [ -550210.141239508986473, -1123514.11173377931118 ], [ -550013.050215795636177, -1123861.013560824096203 ] ] ] } },
{ "type": "Feature", "properties": { "OBJECTID": 5966, "TRIDA": 1, "CISLO_SILNICE": "D35", "MEZINARODNI_OZNACENI": "E442#E462", "PRUHY": 4, "SHAPE_Length": 4952.9235824170382 }, "geometry": { "type": "MultiLineString", "coordinates": [ [ [ -550013.050215795636177, -1123861.013560824096203 ], [ -549877.764202944934368, -1124208.479420103132725 ], [ -549680.624983288347721, -1124720.382678393274546 ], [ -549379.960702791810036, -1125544.173760164529085 ], [ -549060.65489499270916, -1126014.961862485855818 ], [ -548599.980781219899654, -1126329.172870133072138 ], [ -547979.680306244641542, -1126488.932643298059702 ], [ -547290.60125157982111, -1126326.83379527553916 ], [ -546925.830080065876245, -1126212.773904498666525 ], [ -546639.677667945623398, -1126131.575265146791935 ] ] ] } },
{ "type": "Feature", "properties": { "OBJECTID": 5967, "TRIDA": 1, "CISLO_SILNICE": "D35", "MEZINARODNI_OZNACENI": "E442#E462", "PRUHY": 4, "SHAPE_Length": 3768.9978600926374 }, "geometry": { "type": "MultiLineString", "coordinates": [ [ [ -546639.677667945623398, -1126131.575265146791935 ], [ -546256.57614728435874, -1126045.418380819261074 ], [ -545729.835518055129796, -1126012.799187763594091 ] ] ] } },
{ "type": "Feature", "properties": { "OBJECTID": 5971, "TRIDA": 1, "CISLO_SILNICE": "D46", "MEZINARODNI_OZNACENI": "E462", "PRUHY": 4, "SHAPE_Length": 3850.0708028509243 }, "geometry": { "type": "MultiLineString", "coordinates": [ [ [ -553300.470362830907106, -1127659.929396104067564 ], [ -553244.452706873416901, -1127450.743286099284887 ], [ -553229.510742086917162, -1127387.43616833910346 ], [ -553200.867683436721563, -1127231.007153950631618 ], [ -553135.148673035204411, -1126859.607294000685215 ], [ -553004.3464545160532, -1126471.267782337963581 ], [ -552885.010330304503441, -1126204.012720193713903 ], [ -552412.27815031260252, -1125514.818065118044615 ], [ -551202.188201058655977, -1124638.518026985228062 ] ] ] } },
{ "type": "Feature", "properties": { "OBJECTID": 5973, "TRIDA": 3, "CISLO_SILNICE": "35", "MEZINARODNI_OZNACENI": "N_A", "PRUHY": 4, "SHAPE_Length": 1153.0575758154221 }, "geometry": { "type": "MultiLineString", "coordinates": [ [ [ -546865.978227268904448, -1122930.497102804481983 ], [ -547345.650797720998526, -1122857.800681870430708 ], [ -547739.830400425940752, -1122684.258789774030447 ], [ -547817.074353080242872, -1122637.876830019056797 ], [ -547943.201215852051973, -1122562.143191546201706 ] ] ] } },
{ "type": "Feature", "properties": { "OBJECTID": 5974, "TRIDA": 3, "CISLO_SILNICE": "35", "MEZINARODNI_OZNACENI": "N_A", "PRUHY": 4, "SHAPE_Length": 1302.4497869173126 }, "geometry": { "type": "MultiLineString", "coordinates": [ [ [ -548508.78235675022006, -1121065.816836517304182 ], [ -548540.051919691264629, -1120770.860981337726116 ], [ -548671.421313658356667, -1120593.686232700943947 ], [ -548837.510646086186171, -1120448.371971182525158 ], [ -549275.482549712061882, -1120092.080142471939325 ] ] ] } },
{ "type": "Feature", "properties": { "OBJECTID": 5978, "TRIDA": 3, "CISLO_SILNICE": "35", "MEZINARODNI_OZNACENI": "N_A", "PRUHY": 4, "SHAPE_Length": 1048.7139936744275 }, "geometry": { "type": "MultiLineString", "coordinates": [ [ [ -545857.162569910287857, -1122651.037640377879143 ], [ -546466.588922489434481, -1122851.816177621483803 ], [ -546865.978227268904448, -1122930.497102804481983 ] ] ] } },
{ "type": "Feature", "properties": { "OBJECTID": 5979, "TRIDA": 3, "CISLO_SILNICE": "35", "MEZINARODNI_OZNACENI": "N_A", "PRUHY": 4, "SHAPE_Length": 605.63184436515382 }, "geometry": { "type": "MultiLineString", "coordinates": [ [ [ -545841.08013942965772, -1122643.604625441133976 ], [ -545857.162569910287857, -1122651.037640377879143 ] ] ] } },
{ "type": "Feature", "properties": { "OBJECTID": 5981, "TRIDA": 3, "CISLO_SILNICE": "35", "MEZINARODNI_OZNACENI": "N_A", "PRUHY": 4, "SHAPE_Length": 1636.8470253927558 }, "geometry": { "type": "MultiLineString", "coordinates": [ [ [ -547943.201215852051973, -1122562.143191546201706 ], [ -548040.316041607409716, -1122013.391689877957106 ], [ -548435.495710138231516, -1121451.755980655550957 ], [ -548508.78235675022006, -1121065.816836517304182 ] ] ] } },
{ "type": "Feature", "properties": { "OBJECTID": 5987, "TRIDA": 3, "CISLO_SILNICE": "46", "MEZINARODNI_OZNACENI": "N_A", "PRUHY": 4, "SHAPE_Length": 2381.0708095098553 }, "geometry": { "type": "MultiLineString", "coordinates": [ [ [ -549678.852036140859127, -1123758.049389004707336 ], [ -549176.124167867004871, -1123729.642246000468731 ], [ -549140.957019947469234, -1123730.814315464347601 ], [ -548973.440493877977133, -1123731.461992107331753 ], [ -548599.778742428869009, -1123664.063632480800152 ], [ -548242.482831567525864, -1123237.592573139816523 ], [ -548007.770333908498287, -1122707.869214057922363 ], [ -547943.201215852051973, -1122562.143191546201706 ] ] ] } },
{ "type": "Feature", "properties": { "OBJECTID": 5988, "TRIDA": 3, "CISLO_SILNICE": "46", "MEZINARODNI_OZNACENI": "N_A", "PRUHY": 4, "SHAPE_Length": 270.71426201377449 }, "geometry": { "type": "MultiLineString", "coordinates": [ [ [ -547943.201215852051973, -1122562.143191546201706 ], [ -547915.571145124733448, -1122465.392978575080633 ], [ -547868.862116519361734, -1122301.835854023694992 ] ] ] } },
{ "type": "Feature", "properties": { "OBJECTID": 5997, "TRIDA": 1, "CISLO_SILNICE": "D46", "MEZINARODNI_OZNACENI": "E462", "PRUHY": 6, "SHAPE_Length": 6887.6805779802935 }, "geometry": { "type": "MultiLineString", "coordinates": [ [ [ -557025.515786867588758, -1132975.183729507029057 ], [ -556790.42034100741148, -1132700.343568850308657 ], [ -556526.245453659445047, -1132495.149340234696865 ], [ -556187.439497351646423, -1132078.114557649940252 ], [ -556075.58579333871603, -1130988.175698067992926 ], [ -555578.352437224239111, -1130027.487706426531076 ], [ -555102.056900642812252, -1128913.629165258258581 ], [ -554807.548429541289806, -1128469.55331526696682 ], [ -554383.49240605533123, -1128174.072718020528555 ], [ -553570.021717201918364, -1127886.451726615428925 ], [ -553457.149088084697723, -1127806.1887172088027 ], [ -553300.470362830907106, -1127659.929396104067564 ] ] ] } },
{ "type": "Feature", "properties": { "OBJECTID": 5998, "TRIDA": 1, "CISLO_SILNICE": "D46", "MEZINARODNI_OZNACENI": "E462", "PRUHY": 6, "SHAPE_Length": 275.30310268596548 }, "geometry": { "type": "MultiLineString", "coordinates": [ [ [ -551202.188201058655977, -1124638.518026985228062 ], [ -550975.939330138266087, -1124481.66380563378334 ] ] ] } },
{ "type": "Feature", "properties": { "OBJECTID": 5999, "TRIDA": 1, "CISLO_SILNICE": "D46", "MEZINARODNI_OZNACENI": "E462", "PRUHY": 6, "SHAPE_Length": 1147.0926883713471 }, "geometry": { "type": "MultiLineString", "coordinates": [ [ [ -550975.939330138266087, -1124481.66380563378334 ], [ -550772.391097761690617, -1124337.107407860457897 ], [ -550398.566772315651178, -1124075.508908003568649 ], [ -550013.050215795636177, -1123861.013560824096203 ] ] ] } },
{ "type": "Feature", "properties": { "OBJECTID": 6000, "TRIDA": 1, "CISLO_SILNICE": "D46", "MEZINARODNI_OZNACENI": "E462", "PRUHY": 6, "SHAPE_Length": 349.69993417645833 }, "geometry": { "type": "MultiLineString", "coordinates": [ [ [ -550013.050215795636177, -1123861.013560824096203 ], [ -549678.852036140859127, -1123758.049389004707336 ] ] ] } },
{ "type": "Feature", "properties": { "OBJECTID": 5291, "TRIDA": 4, "CISLO_SILNICE": "435", "MEZINARODNI_OZNACENI": "N_A", "PRUHY": 2, "SHAPE_Length": 5650.5593275721312 }, "geometry": { "type": "MultiLineString", "coordinates": [ [ [ -547917.895502079860307, -1131010.600659397896379 ], [ -547998.634583309292793, -1130752.631645765155554 ], [ -547849.024596408009529, -1130019.487354461103678 ], [ -547931.103335592895746, -1129258.304898519068956 ], [ -547767.309073027223349, -1128724.745596371591091 ] ] ] } },
{ "type": "Feature", "properties": { "OBJECTID": 5299, "TRIDA": 5, "CISLO_SILNICE": "4353", "MEZINARODNI_OZNACENI": "N_A", "PRUHY": 2, "SHAPE_Length": 4075.8598625407685 }, "geometry": { "type": "MultiLineString", "coordinates": [ [ [ -551589.572525002062321, -1129755.656998258084059 ], [ -551565.866232704371214, -1129720.817093808203936 ], [ -551395.33571394905448, -1129575.533565934747458 ], [ -550488.603953950107098, -1129168.612946521490812 ], [ -548987.705270737409592, -1128694.627322755753994 ], [ -548519.431739367544651, -1128603.252878319472075 ], [ -547995.830662071704865, -1128656.639839038252831 ], [ -547767.309073027223349, -1128724.745596371591091 ] ] ] } },
{ "type": "Feature", "properties": { "OBJECTID": 5305, "TRIDA": 5, "CISLO_SILNICE": "4353", "MEZINARODNI_OZNACENI": "N_A", "PRUHY": 2, "SHAPE_Length": 3997.7354125226188 }, "geometry": { "type": "MultiLineString", "coordinates": [ [ [ -547767.309073027223349, -1128724.745596371591091 ], [ -547089.152162082493305, -1128829.046507123857737 ], [ -546484.076105005806312, -1128681.161656369222328 ] ] ] } },
{ "type": "Feature", "properties": { "OBJECTID": 5121, "TRIDA": 5, "CISLO_SILNICE": "36635", "MEZINARODNI_OZNACENI": "N_A", "PRUHY": 2, "SHAPE_Length": 2533.2561929638223 }, "geometry": { "type": "MultiLineString", "coordinates": [ [ [ -564474.872519917786121, -1122712.049339026212692 ], [ -564369.34488271176815, -1123123.09979198500514 ], [ -563911.480801980942488, -1123596.702292922884226 ], [ -563604.470547661185265, -1124146.168526463210583 ], [ -563518.356096718460321, -1124508.363834355026484 ], [ -563144.765416823327541, -1124756.385571908205748 ] ] ] } },
{ "type": "Feature", "properties": { "OBJECTID": 5624, "TRIDA": 4, "CISLO_SILNICE": "448", "MEZINARODNI_OZNACENI": "N_A", "PRUHY": 2, "SHAPE_Length": 289.24211427216215 }, "geometry": { "type": "MultiLineString", "coordinates": [ [ [ -559806.942965094000101, -1121669.934301171451807 ], [ -559543.80621137842536, -1121549.850790593773127 ] ] ] } },
{ "type": "Feature", "properties": { "OBJECTID": 5626, "TRIDA": 4, "CISLO_SILNICE": "448", "MEZINARODNI_OZNACENI": "N_A", "PRUHY": 2, "SHAPE_Length": 512.60847605843401 }, "geometry": { "type": "MultiLineString", "coordinates": [ [ [ -559543.80621137842536, -1121549.850790593773127 ], [ -559058.988025486469269, -1121383.36122228577733 ] ] ] } },
{ "type": "Feature", "properties": { "OBJECTID": 5627, "TRIDA": 4, "CISLO_SILNICE": "448", "MEZINARODNI_OZNACENI": "N_A", "PRUHY": 2, "SHAPE_Length": 2249.6028897917795 }, "geometry": { "type": "MultiLineString", "coordinates": [ [ [ -564865.443544458365068, -1120801.903311809757724 ], [ -564556.768428839743137, -1120860.207005202770233 ], [ -564399.610538121312857, -1121072.999778300523758 ], [ -564215.246561277657747, -1121138.878219485282898 ], [ -564009.862168233841658, -1121407.85436575114727 ], [ -563504.804654747247696, -1122059.875978700816631 ] ] ] } },
{ "type": "Feature", "properties": { "OBJECTID": 5629, "TRIDA": 4, "CISLO_SILNICE": "448", "MEZINARODNI_OZNACENI": "N_A", "PRUHY": 2, "SHAPE_Length": 3978.5972389922099 }, "geometry": { "type": "MultiLineString", "coordinates": [ [ [ -563504.804654747247696, -1122059.875978700816631 ], [ -563285.841403923928738, -1122178.913846857845783 ], [ -563124.616543930023909, -1122223.990150570869446 ], [ -562455.444683950394392, -1121905.095056027173996 ], [ -562055.756948493421078, -1121602.75910971686244 ], [ -561630.860115345567465, -1121690.502618469297886 ], [ -560673.083263453096151, -1121440.913465019315481 ], [ -559806.942965094000101, -1121669.934301171451807 ] ] ] } },
{ "type": "Feature", "properties": { "OBJECTID": 5630, "TRIDA": 4, "CISLO_SILNICE": "448", "MEZINARODNI_OZNACENI": "N_A", "PRUHY": 2, "SHAPE_Length": 3422.0768387500711 }, "geometry": { "type": "MultiLineString", "coordinates": [ [ [ -559058.988025486469269, -1121383.36122228577733 ], [ -557744.931393872946501, -1120995.378116134554148 ], [ -557159.53508460149169, -1121270.495927333831787 ], [ -556337.74099126458168, -1121339.586907535791397 ], [ -556106.363967202603817, -1121219.612885568290949 ], [ -555983.778633147478104, -1120924.248761851340532 ] ] ] } },
{ "type": "Feature", "properties": { "OBJECTID": 5643, "TRIDA": 5, "CISLO_SILNICE": "44812", "MEZINARODNI_OZNACENI": "N_A", "PRUHY": 2, "SHAPE_Length": 5703.9089700229515 }, "geometry": { "type": "MultiLineString", "coordinates": [ [ [ -563144.765416823327541, -1124756.385571908205748 ], [ -563093.881327319890261, -1124729.702306993305683 ], [ -562951.547007001936436, -1124646.074487328529358 ], [ -562967.32506662979722, -1124504.937382183969021 ], [ -563138.353959377855062, -1123794.930985372513533 ], [ -563062.871778000146151, -1123448.018855571746826 ], [ -562667.794787786900997, -1123422.16400208696723 ], [ -562395.480373956263065, -1123430.476230699568987 ], [ -561986.698273543268442, -1123234.690339162945747 ], [ -561519.99547590687871, -1123250.951056715101004 ], [ -561378.924378249794245, -1123324.93287742510438 ], [ -560962.917077295482159, -1123169.749448772519827 ], [ -560406.63845194876194, -1122659.549288436770439 ], [ -560151.249545365571976, -1122593.435280848294497 ], [ -560077.838567189872265, -1122565.866153541952372 ], [ -559992.262129653245211, -1122160.073249354958534 ], [ -559829.606758184731007, -1121966.836329497396946 ], [ -559806.942965094000101, -1121669.934301171451807 ] ] ] } },
{ "type": "Feature", "properties": { "OBJECTID": 5650, "TRIDA": 5, "CISLO_SILNICE": "4487", "MEZINARODNI_OZNACENI": "N_A", "PRUHY": 2, "SHAPE_Length": 757.66973747508302 }, "geometry": { "type": "MultiLineString", "coordinates": [ [ [ -564474.872519917786121, -1122712.049339026212692 ], [ -564047.885973531752825, -1122086.153245180845261 ] ] ] } },
{ "type": "Feature", "properties": { "OBJECTID": 5651, "TRIDA": 5, "CISLO_SILNICE": "4488", "MEZINARODNI_OZNACENI": "N_A", "PRUHY": 2, "SHAPE_Length": 543.71666660713993 }, "geometry": { "type": "MultiLineString", "coordinates": [ [ [ -563504.804654747247696, -1122059.875978700816631 ], [ -564047.885973531752825, -1122086.153245180845261 ] ] ] } },
{ "type": "Feature", "properties": { "OBJECTID": 5661, "TRIDA": 4, "CISLO_SILNICE": "449", "MEZINARODNI_OZNACENI": "N_A", "PRUHY": 2, "SHAPE_Length": 716.09620678241208 }, "geometry": { "type": "MultiLineString", "coordinates": [ [ [ -558799.999964602291584, -1122050.947854828089476 ], [ -558861.725172761827707, -1121883.639130108058453 ], [ -559058.988025486469269, -1121383.36122228577733 ] ] ] } },
{ "type": "Feature", "properties": { "OBJECTID": 5662, "TRIDA": 4, "CISLO_SILNICE": "449", "MEZINARODNI_OZNACENI": "N_A", "PRUHY": 2, "SHAPE_Length": 3340.3852267633988 }, "geometry": { "type": "MultiLineString", "coordinates": [ [ [ -558593.665098663419485, -1127380.254099670797586 ], [ -558396.776462987065315, -1126848.710470616817474 ], [ -558307.62217515707016, -1125978.695288266986609 ], [ -558295.019983720034361, -1125842.947048377245665 ], [ -558282.987587075680494, -1125713.339774928987026 ], [ -558326.572785139083862, -1125010.250543721020222 ], [ -558344.771119311451912, -1124700.877640441060066 ], [ -558332.152687937021255, -1124082.872235327959061 ] ] ] } },
{ "type": "Feature", "properties": { "OBJECTID": 5663, "TRIDA": 4, "CISLO_SILNICE": "449", "MEZINARODNI_OZNACENI": "N_A", "PRUHY": 2, "SHAPE_Length": 2111.868422623169 }, "geometry": { "type": "MultiLineString", "coordinates": [ [ [ -558332.152687937021255, -1124082.872235327959061 ], [ -558516.250713977962732, -1123815.651748534291983 ], [ -558799.999964602291584, -1122050.947854828089476 ] ] ] } },
{ "type": "Feature", "properties": { "OBJECTID": 5664, "TRIDA": 4, "CISLO_SILNICE": "449", "MEZINARODNI_OZNACENI": "N_A", "PRUHY": 2, "SHAPE_Length": 2025.6539379115613 }, "geometry": { "type": "MultiLineString", "coordinates": [ [ [ -559058.988025486469269, -1121383.36122228577733 ], [ -559309.902916625142097, -1120204.218656569719315 ], [ -559325.455014109611511, -1119384.255834456533194 ] ] ] } },
{ "type": "Feature", "properties": { "OBJECTID": 5845, "TRIDA": 4, "CISLO_SILNICE": "570", "MEZINARODNI_OZNACENI": "N_A", "PRUHY": 2, "SHAPE_Length": 1245.6740221582456 }, "geometry": { "type": "MultiLineString", "coordinates": [ [ [ -558332.152687937021255, -1124082.872235327959061 ], [ -557147.8440758921206, -1124469.028785079717636 ] ] ] } },
{ "type": "Feature", "properties": { "OBJECTID": 5846, "TRIDA": 4, "CISLO_SILNICE": "570", "MEZINARODNI_OZNACENI": "N_A", "PRUHY": 2, "SHAPE_Length": 1759.5600468546822 }, "geometry": { "type": "MultiLineString", "coordinates": [ [ [ -557147.8440758921206, -1124469.028785079717636 ], [ -556326.697135329246521, -1124585.505632564425468 ], [ -555571.923866730183363, -1124514.647467777132988 ], [ -555441.247900627553463, -1124626.641394045203924 ] ] ] } },
{ "type": "Feature", "properties": { "OBJECTID": 5851, "TRIDA": 5, "CISLO_SILNICE": "57011", "MEZINARODNI_OZNACENI": "N_A", "PRUHY": 2, "SHAPE_Length": 3030.0271102555225 }, "geometry": { "type": "MultiLineString", "coordinates": [ [ [ -555441.247900627553463, -1124626.641394045203924 ], [ -555305.588543836027384, -1124985.156871818006039 ], [ -554631.080903988331556, -1125802.068506553769112 ], [ -553963.496192302554846, -1126776.129650101065636 ], [ -553856.517088860273361, -1127168.238224226981401 ] ] ] } },
{ "type": "Feature", "properties": { "OBJECTID": 5607, "TRIDA": 5, "CISLO_SILNICE": "4465", "MEZINARODNI_OZNACENI": "N_A", "PRUHY": 2, "SHAPE_Length": 2615.5197784268257 }, "geometry": { "type": "MultiLineString", "coordinates": [ [ [ -549801.908677626401186, -1117094.208649951964617 ], [ -549838.375575944432057, -1116506.311986346496269 ] ] ] } },
{ "type": "Feature", "properties": { "OBJECTID": 5862, "TRIDA": 4, "CISLO_SILNICE": "635", "MEZINARODNI_OZNACENI": "N_A", "PRUHY": 2, "SHAPE_Length": 2301.4407035741283 }, "geometry": { "type": "MultiLineString", "coordinates": [ [ [ -554011.427756410092115, -1115908.151712600141764 ], [ -555171.599653466837481, -1114664.276867725653574 ] ] ] } },
{ "type": "Feature", "properties": { "OBJECTID": 5237, "TRIDA": 5, "CISLO_SILNICE": "37340", "MEZINARODNI_OZNACENI": "N_A", "PRUHY": 2, "SHAPE_Length": 7194.8197760888452 }, "geometry": { "type": "MultiLineString", "coordinates": [ [ [ -563291.395314284367487, -1118218.451138151343912 ], [ -562782.061082933098078, -1118442.29406226426363 ], [ -562381.0738032348454, -1118871.094941440969706 ], [ -561793.894069440662861, -1119011.785710241645575 ], [ -560918.548345912247896, -1119001.898033075034618 ], [ -560409.726484779268503, -1119192.506353169679642 ], [ -560243.370677679777145, -1119391.573934428393841 ], [ -560073.232012897729874, -1119401.672905400395393 ] ] ] } },
{ "type": "Feature", "properties": { "OBJECTID": 5238, "TRIDA": 5, "CISLO_SILNICE": "37340", "MEZINARODNI_OZNACENI": "N_A", "PRUHY": 2, "SHAPE_Length": 747.97980873605752 }, "geometry": { "type": "MultiLineString", "coordinates": [ [ [ -560073.232012897729874, -1119401.672905400395393 ], [ -559325.455014109611511, -1119384.255834456533194 ] ] ] } },
{ "type": "Feature", "properties": { "OBJECTID": 5658, "TRIDA": 4, "CISLO_SILNICE": "449", "MEZINARODNI_OZNACENI": "N_A", "PRUHY": 2, "SHAPE_Length": 777.2820122849696 }, "geometry": { "type": "MultiLineString", "coordinates": [ [ [ -559325.455014109611511, -1119384.255834456533194 ], [ -559333.120788440108299, -1119221.788357317447662 ], [ -559408.277297955006361, -1118611.766889609396458 ] ] ] } },
{ "type": "Feature", "properties": { "OBJECTID": 5660, "TRIDA": 4, "CISLO_SILNICE": "449", "MEZINARODNI_OZNACENI": "N_A", "PRUHY": 2, "SHAPE_Length": 1824.2451758573216 }, "geometry": { "type": "MultiLineString", "coordinates": [ [ [ -559408.277297955006361, -1118611.766889609396458 ], [ -559196.479351993650198, -1117789.163069501519203 ], [ -558758.434281341731548, -1116968.793550457805395 ], [ -558727.45598953589797, -1116936.404828820377588 ] ] ] } },
{ "type": "Feature", "properties": { "OBJECTID": 5683, "TRIDA": 5, "CISLO_SILNICE": "44921", "MEZINARODNI_OZNACENI": "N_A", "PRUHY": 2, "SHAPE_Length": 4383.2608199315791 }, "geometry": { "type": "MultiLineString", "coordinates": [ [ [ -559325.455014109611511, -1119384.255834456533194 ], [ -559176.904290225356817, -1119382.13573681935668 ], [ -559088.353674046695232, -1119213.495861101895571 ], [ -558538.250066619366407, -1119037.220246206969023 ], [ -556973.747755825519562, -1119371.641943279653788 ], [ -556801.175021283328533, -1119542.047431979328394 ], [ -556438.414808038622141, -1120341.640832375735044 ], [ -555990.008657313883305, -1120876.28978193551302 ], [ -555983.778633147478104, -1120924.248761851340532 ] ] ] } },
{ "type": "Feature", "properties": { "OBJECTID": 5644, "TRIDA": 5, "CISLO_SILNICE": "44815", "MEZINARODNI_OZNACENI": "N_A", "PRUHY": 2, "SHAPE_Length": 5813.6973211108443 }, "geometry": { "type": "MultiLineString", "coordinates": [ [ [ -555563.994062449783087, -1121100.766928073018789 ], [ -555314.120273537933826, -1120518.207718405872583 ], [ -554955.70398161932826, -1120213.902199469506741 ], [ -554735.778732780367136, -1118777.637594062834978 ], [ -555441.778056003153324, -1118315.567544165998697 ], [ -557626.963266108185053, -1117292.397353734821081 ] ] ] } },
{ "type": "Feature", "properties": { "OBJECTID": 5216, "TRIDA": 5, "CISLO_SILNICE": "37313", "MEZINARODNI_OZNACENI": "N_A", "PRUHY": 2, "SHAPE_Length": 1364.36710071876 }, "geometry": { "type": "MultiLineString", "coordinates": [ [ [ -559859.963916040956974, -1115825.373957615345716 ], [ -559048.710065957158804, -1116062.594041310250759 ], [ -558619.800396658480167, -1116355.073917217552662 ] ] ] } },
{ "type": "Feature", "properties": { "OBJECTID": 5219, "TRIDA": 5, "CISLO_SILNICE": "37313", "MEZINARODNI_OZNACENI": "N_A", "PRUHY": 2, "SHAPE_Length": 3501.6317064601872 }, "geometry": { "type": "MultiLineString", "coordinates": [ [ [ -560306.597041149856523, -1115810.69314347836189 ], [ -559859.963916040956974, -1115825.373957615345716 ] ] ] } },
{ "type": "Feature", "properties": { "OBJECTID": 5224, "TRIDA": 5, "CISLO_SILNICE": "3732", "MEZINARODNI_OZNACENI": "N_A", "PRUHY": 2, "SHAPE_Length": 2295.0374621632982 }, "geometry": { "type": "MultiLineString", "coordinates": [ [ [ -559859.963916040956974, -1115825.373957615345716 ], [ -559857.192465695436113, -1115587.589786959812045 ] ] ] } },
{ "type": "Feature", "properties": { "OBJECTID": 5645, "TRIDA": 5, "CISLO_SILNICE": "44815", "MEZINARODNI_OZNACENI": "N_A", "PRUHY": 2, "SHAPE_Length": 351.42259921321079 }, "geometry": { "type": "MultiLineString", "coordinates": [ [ [ -558392.757515035569668, -1116829.284455385059118 ], [ -558727.45598953589797, -1116936.404828820377588 ] ] ] } },
{ "type": "Feature", "properties": { "OBJECTID": 5646, "TRIDA": 5, "CISLO_SILNICE": "44815", "MEZINARODNI_OZNACENI": "N_A", "PRUHY": 2, "SHAPE_Length": 894.93820362535314 }, "geometry": { "type": "MultiLineString", "coordinates": [ [ [ -557626.963266108185053, -1117292.397353734821081 ], [ -558392.757515035569668, -1116829.284455385059118 ] ] ] } },
{ "type": "Feature", "properties": { "OBJECTID": 5654, "TRIDA": 4, "CISLO_SILNICE": "449", "MEZINARODNI_OZNACENI": "N_A", "PRUHY": 2, "SHAPE_Length": 383.81827298577059 }, "geometry": { "type": "MultiLineString", "coordinates": [ [ [ -558727.45598953589797, -1116936.404828820377588 ], [ -558700.590942095965147, -1116714.932769600301981 ], [ -558585.061598915606737, -1116603.19745996966958 ] ] ] } },
{ "type": "Feature", "properties": { "OBJECTID": 5655, "TRIDA": 4, "CISLO_SILNICE": "449", "MEZINARODNI_OZNACENI": "N_A", "PRUHY": 2, "SHAPE_Length": 342.61672494711291 }, "geometry": { "type": "MultiLineString", "coordinates": [ [ [ -558619.800396658480167, -1116355.073917217552662 ], [ -558541.045955199748278, -1116021.631331209093332 ] ] ] } },
{ "type": "Feature", "properties": { "OBJECTID": 5659, "TRIDA": 4, "CISLO_SILNICE": "449", "MEZINARODNI_OZNACENI": "N_A", "PRUHY": 2, "SHAPE_Length": 250.54356215333465 }, "geometry": { "type": "MultiLineString", "coordinates": [ [ [ -558585.061598915606737, -1116603.19745996966958 ], [ -558619.800396658480167, -1116355.073917217552662 ] ] ] } },
{ "type": "Feature", "properties": { "OBJECTID": 5666, "TRIDA": 4, "CISLO_SILNICE": "449", "MEZINARODNI_OZNACENI": "N_A", "PRUHY": 2, "SHAPE_Length": 3595.415230509132 }, "geometry": { "type": "MultiLineString", "coordinates": [ [ [ -558541.045955199748278, -1116021.631331209093332 ], [ -558289.640085560153238, -1115011.632328853709623 ] ] ] } },
{ "type": "Feature", "properties": { "OBJECTID": 5681, "TRIDA": 5, "CISLO_SILNICE": "44916", "MEZINARODNI_OZNACENI": "N_A", "PRUHY": 2, "SHAPE_Length": 296.81002370691374 }, "geometry": { "type": "MultiLineString", "coordinates": [ [ [ -558585.061598915606737, -1116603.19745996966958 ], [ -558392.757515035569668, -1116829.284455385059118 ] ] ] } },
{ "type": "Feature", "properties": { "OBJECTID": 5631, "TRIDA": 4, "CISLO_SILNICE": "448", "MEZINARODNI_OZNACENI": "N_A", "PRUHY": 2, "SHAPE_Length": 456.12978940282602 }, "geometry": { "type": "MultiLineString", "coordinates": [ [ [ -555983.778633147478104, -1120924.248761851340532 ], [ -555684.081065487116575, -1121062.880551058799028 ], [ -555563.994062449783087, -1121100.766928073018789 ] ] ] } },
{ "type": "Feature", "properties": { "OBJECTID": 5040, "TRIDA": 4, "CISLO_SILNICE": "150", "MEZINARODNI_OZNACENI": "N_A", "PRUHY": 2, "SHAPE_Length": 922.2792416873433 }, "geometry": { "type": "MultiLineString", "coordinates": [ [ [ -558151.967962943017483, -1133885.677567053586245 ], [ -557244.096962604671717, -1133723.291464224457741 ] ] ] } },
{ "type": "Feature", "properties": { "OBJECTID": 5041, "TRIDA": 4, "CISLO_SILNICE": "150", "MEZINARODNI_OZNACENI": "N_A", "PRUHY": 2, "SHAPE_Length": 1535.0242500109107 }, "geometry": { "type": "MultiLineString", "coordinates": [ [ [ -555794.000994585454464, -1133182.07180105894804 ], [ -555324.676756728440523, -1133754.67400823533535 ], [ -555221.235165674239397, -1133877.238562155514956 ], [ -554708.518688153475523, -1134250.643967065960169 ] ] ] } },
{ "type": "Feature", "properties": { "OBJECTID": 5042, "TRIDA": 4, "CISLO_SILNICE": "150", "MEZINARODNI_OZNACENI": "N_A", "PRUHY": 2, "SHAPE_Length": 1551.8914112204129 }, "geometry": { "type": "MultiLineString", "coordinates": [ [ [ -557244.096962604671717, -1133723.291464224457741 ], [ -557046.106106661260128, -1133660.878940008580685 ], [ -556797.54862579330802, -1133551.643882248550653 ], [ -556096.295206002891064, -1133335.405273828655481 ], [ -555794.000994585454464, -1133182.07180105894804 ] ] ] } },
{ "type": "Feature", "properties": { "OBJECTID": 5043, "TRIDA": 4, "CISLO_SILNICE": "150", "MEZINARODNI_OZNACENI": "N_A", "PRUHY": 2, "SHAPE_Length": 1884.2636815488008 }, "geometry": { "type": "MultiLineString", "coordinates": [ [ [ -554708.518688153475523, -1134250.643967065960169 ], [ -554194.369254432618618, -1133878.709935408085585 ], [ -552948.620593562722206, -1133977.875358853489161 ] ] ] } },
{ "type": "Feature", "properties": { "OBJECTID": 5051, "TRIDA": 4, "CISLO_SILNICE": "150", "MEZINARODNI_OZNACENI": "N_A", "PRUHY": 2, "SHAPE_Length": 493.08688408508544 }, "geometry": { "type": "MultiLineString", "coordinates": [ [ [ -558883.378248028457165, -1133850.35098835080862 ], [ -558857.259713839739561, -1134060.370748475193977 ], [ -558702.594259955454618, -1134171.793376456480473 ] ] ] } },
{ "type": "Feature", "properties": { "OBJECTID": 5055, "TRIDA": 4, "CISLO_SILNICE": "150", "MEZINARODNI_OZNACENI": "N_A", "PRUHY": 2, "SHAPE_Length": 2754.2066845356603 }, "geometry": { "type": "MultiLineString", "coordinates": [ [ [ -559759.905012375209481, -1133763.879377451259643 ], [ -558883.378248028457165, -1133850.35098835080862 ] ] ] } },
{ "type": "Feature", "properties": { "OBJECTID": 5057, "TRIDA": 4, "CISLO_SILNICE": "150A", "MEZINARODNI_OZNACENI": "N_A", "PRUHY": 2, "SHAPE_Length": 361.17677245547122 }, "geometry": { "type": "MultiLineString", "coordinates": [ [ [ -558883.378248028457165, -1133850.35098835080862 ], [ -558849.334624379873276, -1133636.290976263582706 ], [ -558705.581317704170942, -1133650.219953127205372 ] ] ] } },
{ "type": "Feature", "properties": { "OBJECTID": 5058, "TRIDA": 4, "CISLO_SILNICE": "150A", "MEZINARODNI_OZNACENI": "N_A", "PRUHY": 2, "SHAPE_Length": 496.5079445501579 }, "geometry": { "type": "MultiLineString", "coordinates": [ [ [ -558705.581317704170942, -1133650.219953127205372 ], [ -558228.512899797409773, -1133787.791256956756115 ] ] ] } },
{ "type": "Feature", "properties": { "OBJECTID": 5059, "TRIDA": 4, "CISLO_SILNICE": "150A", "MEZINARODNI_OZNACENI": "N_A", "PRUHY": 2, "SHAPE_Length": 124.26124521513412 }, "geometry": { "type": "MultiLineString", "coordinates": [ [ [ -558228.512899797409773, -1133787.791256956756115 ], [ -558151.967962943017483, -1133885.677567053586245 ] ] ] } },
{ "type": "Feature", "properties": { "OBJECTID": 5060, "TRIDA": 4, "CISLO_SILNICE": "150H", "MEZINARODNI_OZNACENI": "N_A", "PRUHY": 2, "SHAPE_Length": 1027.8765133572606 }, "geometry": { "type": "MultiLineString", "coordinates": [ [ [ -554708.518688153475523, -1134250.643967065960169 ], [ -554963.378474216442555, -1134630.6445780294016 ] ] ] } },
{ "type": "Feature", "properties": { "OBJECTID": 5107, "TRIDA": 4, "CISLO_SILNICE": "366", "MEZINARODNI_OZNACENI": "N_A", "PRUHY": 2, "SHAPE_Length": 1103.9480025217229 }, "geometry": { "type": "MultiLineString", "coordinates": [ [ [ -560413.427793525159359, -1131462.282859429717064 ], [ -559639.412993054836988, -1132249.431054450571537 ] ] ] } },
{ "type": "Feature", "properties": { "OBJECTID": 5108, "TRIDA": 4, "CISLO_SILNICE": "366", "MEZINARODNI_OZNACENI": "N_A", "PRUHY": 2, "SHAPE_Length": 1700.8209627415524 }, "geometry": { "type": "MultiLineString", "coordinates": [ [ [ -559639.412993054836988, -1132249.431054450571537 ], [ -559232.739989034831524, -1132688.679277457296848 ], [ -559142.572713278234005, -1132803.519383724778891 ], [ -558927.324915662407875, -1133134.180050991475582 ], [ -558705.581317704170942, -1133650.219953127205372 ] ] ] } },
{ "type": "Feature", "properties": { "OBJECTID": 5115, "TRIDA": 4, "CISLO_SILNICE": "366", "MEZINARODNI_OZNACENI": "N_A", "PRUHY": 2, "SHAPE_Length": 2561.036435053345 }, "geometry": { "type": "MultiLineString", "coordinates": [ [ [ -561650.577145598828793, -1129236.372426476329565 ], [ -561480.696224343031645, -1129768.755468212068081 ], [ -560605.135714542120695, -1131187.229484111070633 ], [ -560413.427793525159359, -1131462.282859429717064 ] ] ] } },
{ "type": "Feature", "properties": { "OBJECTID": 5125, "TRIDA": 4, "CISLO_SILNICE": "367", "MEZINARODNI_OZNACENI": "N_A", "PRUHY": 2, "SHAPE_Length": 338.58661893722712 }, "geometry": { "type": "MultiLineString", "coordinates": [ [ [ -557122.302349123987369, -1134542.393987906631082 ], [ -557297.062208820134401, -1134450.583440877497196 ] ] ] } },
{ "type": "Feature", "properties": { "OBJECTID": 5129, "TRIDA": 4, "CISLO_SILNICE": "367", "MEZINARODNI_OZNACENI": "N_A", "PRUHY": 2, "SHAPE_Length": 934.94609003412756 }, "geometry": { "type": "MultiLineString", "coordinates": [ [ [ -557297.062208820134401, -1134450.583440877497196 ], [ -557422.286054132971913, -1134492.623512610094622 ] ], [ [ -557893.4344879189739, -1134395.460941799217835 ], [ -558119.913469694554806, -1134248.209722682833672 ] ] ] } },
{ "type": "Feature", "properties": { "OBJECTID": 5135, "TRIDA": 5, "CISLO_SILNICE": "3677", "MEZINARODNI_OZNACENI": "N_A", "PRUHY": 2, "SHAPE_Length": 1592.3892283663786 }, "geometry": { "type": "MultiLineString", "coordinates": [ [ [ -553107.572861127089709, -1134328.146624223561957 ], [ -552948.620593562722206, -1133977.875358853489161 ] ] ] } },
{ "type": "Feature", "properties": { "OBJECTID": 5273, "TRIDA": 5, "CISLO_SILNICE": "37760", "MEZINARODNI_OZNACENI": "N_A", "PRUHY": 2, "SHAPE_Length": 132.57091602679134 }, "geometry": { "type": "MultiLineString", "coordinates": [ [ [ -560413.427793525159359, -1131462.282859429717064 ], [ -560311.381265483796597, -1131377.656894791871309 ] ] ] } },
{ "type": "Feature", "properties": { "OBJECTID": 5274, "TRIDA": 5, "CISLO_SILNICE": "37760", "MEZINARODNI_OZNACENI": "N_A", "PRUHY": 2, "SHAPE_Length": 1838.5538561421838 }, "geometry": { "type": "MultiLineString", "coordinates": [ [ [ -561805.162849496351555, -1132524.389144594082609 ], [ -561495.69336998835206, -1132396.159587509930134 ], [ -561193.669824194163084, -1132170.518928442150354 ] ] ] } },
{ "type": "Feature", "properties": { "OBJECTID": 5275, "TRIDA": 5, "CISLO_SILNICE": "37760", "MEZINARODNI_OZNACENI": "N_A", "PRUHY": 2, "SHAPE_Length": 1053.7437809413989 }, "geometry": { "type": "MultiLineString", "coordinates": [ [ [ -561193.669824194163084, -1132170.518928442150354 ], [ -560413.427793525159359, -1131462.282859429717064 ] ] ] } },
{ "type": "Feature", "properties": { "OBJECTID": 5276, "TRIDA": 5, "CISLO_SILNICE": "37760", "MEZINARODNI_OZNACENI": "N_A", "PRUHY": 2, "SHAPE_Length": 1449.840219610466 }, "geometry": { "type": "MultiLineString", "coordinates": [ [ [ -560311.381265483796597, -1131377.656894791871309 ], [ -560078.630133170634508, -1131150.623442810028791 ], [ -559895.668029632419348, -1130975.642133466899395 ], [ -559106.184077590703964, -1130606.478670056909323 ] ] ] } },
{ "type": "Feature", "properties": { "OBJECTID": 5277, "TRIDA": 5, "CISLO_SILNICE": "37762", "MEZINARODNI_OZNACENI": "N_A", "PRUHY": 2, "SHAPE_Length": 1445.2637763651728 }, "geometry": { "type": "MultiLineString", "coordinates": [ [ [ -561193.669824194163084, -1132170.518928442150354 ], [ -561396.884783545159735, -1132827.881784511962906 ] ] ] } },
{ "type": "Feature", "properties": { "OBJECTID": 5297, "TRIDA": 5, "CISLO_SILNICE": "4353", "MEZINARODNI_OZNACENI": "N_A", "PRUHY": 2, "SHAPE_Length": 2901.0336667293914 }, "geometry": { "type": "MultiLineString", "coordinates": [ [ [ -558566.948131512850523, -1129909.71114007756114 ], [ -557511.501851268112659, -1130256.454060208052397 ], [ -556875.909117802977562, -1129989.080254435539246 ], [ -555775.364705972373486, -1129986.197927478700876 ] ] ] } },
{ "type": "Feature", "properties": { "OBJECTID": 5301, "TRIDA": 5, "CISLO_SILNICE": "4353", "MEZINARODNI_OZNACENI": "N_A", "PRUHY": 2, "SHAPE_Length": 3279.3431473208129 }, "geometry": { "type": "MultiLineString", "coordinates": [ [ [ -555775.364705972373486, -1129986.197927478700876 ], [ -555578.352437224239111, -1130027.487706426531076 ], [ -554363.677936177700758, -1130259.180623464286327 ], [ -552988.846743922680616, -1129779.332906160503626 ], [ -552604.01366176083684, -1129798.539338812232018 ] ] ] } },
{ "type": "Feature", "properties": { "OBJECTID": 5310, "TRIDA": 5, "CISLO_SILNICE": "4357", "MEZINARODNI_OZNACENI": "N_A", "PRUHY": 2, "SHAPE_Length": 216.67838319438133 }, "geometry": { "type": "MultiLineString", "coordinates": [ [ [ -555794.000994585454464, -1133182.07180105894804 ], [ -555645.872334450483322, -1133023.934450030326843 ] ] ] } },
{ "type": "Feature", "properties": { "OBJECTID": 5311, "TRIDA": 5, "CISLO_SILNICE": "4357", "MEZINARODNI_OZNACENI": "N_A", "PRUHY": 2, "SHAPE_Length": 64.356990200772628 }, "geometry": { "type": "MultiLineString", "coordinates": [ [ [ -555645.872334450483322, -1133023.934450030326843 ], [ -555616.360002588480711, -1132966.743153002113104 ] ] ] } },
{ "type": "Feature", "properties": { "OBJECTID": 5312, "TRIDA": 5, "CISLO_SILNICE": "4357", "MEZINARODNI_OZNACENI": "N_A", "PRUHY": 2, "SHAPE_Length": 4339.6222380362724 }, "geometry": { "type": "MultiLineString", "coordinates": [ [ [ -555616.360002588480711, -1132966.743153002113104 ], [ -555424.407958641648293, -1132594.763195503503084 ], [ -555014.749425478279591, -1132216.915556527674198 ], [ -551990.486113801598549, -1130744.327624432742596 ] ] ] } },
{ "type": "Feature", "properties": { "OBJECTID": 5652, "TRIDA": 4, "CISLO_SILNICE": "449", "MEZINARODNI_OZNACENI": "N_A", "PRUHY": 2, "SHAPE_Length": 154.66716050125504 }, "geometry": { "type": "MultiLineString", "coordinates": [ [ [ -559639.412993054836988, -1132249.431054450571537 ], [ -559581.96150778606534, -1132105.830019015818834 ] ] ] } },
{ "type": "Feature", "properties": { "OBJECTID": 5653, "TRIDA": 4, "CISLO_SILNICE": "449", "MEZINARODNI_OZNACENI": "N_A", "PRUHY": 2, "SHAPE_Length": 1587.6544985797782 }, "geometry": { "type": "MultiLineString", "coordinates": [ [ [ -559581.96150778606534, -1132105.830019015818834 ], [ -559424.476024352014065, -1131255.55072620511055 ], [ -559106.184077590703964, -1130606.478670056909323 ] ] ] } },
{ "type": "Feature", "properties": { "OBJECTID": 5657, "TRIDA": 4, "CISLO_SILNICE": "449", "MEZINARODNI_OZNACENI": "N_A", "PRUHY": 2, "SHAPE_Length": 908.89827963142704 }, "geometry": { "type": "MultiLineString", "coordinates": [ [ [ -559106.184077590703964, -1130606.478670056909323 ], [ -558710.127103198319674, -1129961.956939600408077 ], [ -558566.948131512850523, -1129909.71114007756114 ] ] ] } },
{ "type": "Feature", "properties": { "OBJECTID": 5686, "TRIDA": 5, "CISLO_SILNICE": "44934", "MEZINARODNI_OZNACENI": "N_A", "PRUHY": 2, "SHAPE_Length": 517.60262275496348 }, "geometry": { "type": "MultiLineString", "coordinates": [ [ [ -558228.512899797409773, -1133787.791256956756115 ], [ -558092.356565997004509, -1133288.417721565812826 ] ] ] } },
{ "type": "Feature", "properties": { "OBJECTID": 5687, "TRIDA": 5, "CISLO_SILNICE": "44934", "MEZINARODNI_OZNACENI": "N_A", "PRUHY": 2, "SHAPE_Length": 771.36678547920246 }, "geometry": { "type": "MultiLineString", "coordinates": [ [ [ -558092.356565997004509, -1133288.417721565812826 ], [ -557909.68154264613986, -1133013.568131268024445 ], [ -557827.0632184445858, -1132889.262062337249517 ], [ -557627.463910203427076, -1132676.008808434009552 ] ] ] } },
{ "type": "Feature", "properties": { "OBJECTID": 5688, "TRIDA": 5, "CISLO_SILNICE": "44934", "MEZINARODNI_OZNACENI": "N_A", "PRUHY": 2, "SHAPE_Length": 685.9290263130913 }, "geometry": { "type": "MultiLineString", "coordinates": [ [ [ -557627.463910203427076, -1132676.008808434009552 ], [ -557044.659529868513346, -1133037.723728504031897 ] ] ] } },
{ "type": "Feature", "properties": { "OBJECTID": 5884, "TRIDA": 6, "CISLO_SILNICE": "N_A", "MEZINARODNI_OZNACENI": "N_A", "PRUHY": 2, "SHAPE_Length": 3269.2222580225571 }, "geometry": { "type": "MultiLineString", "coordinates": [ [ [ -557627.463910203427076, -1132676.008808434009552 ], [ -557218.265683222562075, -1132104.737752258777618 ], [ -556521.710844036191702, -1131196.602023474872112 ], [ -555775.364705972373486, -1129986.197927478700876 ] ] ] } },
{ "type": "Feature", "properties": { "OBJECTID": 5943, "TRIDA": 4, "CISLO_SILNICE": "150", "MEZINARODNI_OZNACENI": "N_A", "PRUHY": 3, "SHAPE_Length": 509.51913440613509 }, "geometry": { "type": "MultiLineString", "coordinates": [ [ [ -558515.462256299331784, -1134230.083035411546007 ], [ -558119.913469694554806, -1134248.209722682833672 ] ] ] } },
{ "type": "Feature", "properties": { "OBJECTID": 5944, "TRIDA": 4, "CISLO_SILNICE": "150", "MEZINARODNI_OZNACENI": "N_A", "PRUHY": 3, "SHAPE_Length": 363.94649936852619 }, "geometry": { "type": "MultiLineString", "coordinates": [ [ [ -558119.913469694554806, -1134248.209722682833672 ], [ -558151.967962943017483, -1133885.677567053586245 ] ] ] } },
{ "type": "Feature", "properties": { "OBJECTID": 5969, "TRIDA": 1, "CISLO_SILNICE": "D46", "MEZINARODNI_OZNACENI": "E462", "PRUHY": 4, "SHAPE_Length": 2193.9978298658657 }, "geometry": { "type": "MultiLineString", "coordinates": [ [ [ -557113.563504031277262, -1134543.732085079420358 ], [ -556987.308103568851948, -1134348.795529473572969 ], [ -557046.106106661260128, -1133660.878940008580685 ], [ -557095.826683226972818, -1133355.472423162311316 ], [ -557103.039136294275522, -1133308.127941522747278 ], [ -557044.659529868513346, -1133037.723728504031897 ] ] ] } },
{ "type": "Feature", "properties": { "OBJECTID": 5970, "TRIDA": 1, "CISLO_SILNICE": "D46", "MEZINARODNI_OZNACENI": "E462", "PRUHY": 4, "SHAPE_Length": 65.404391065360173 }, "geometry": { "type": "MultiLineString", "coordinates": [ [ [ -557044.659529868513346, -1133037.723728504031897 ], [ -557025.515786867588758, -1132975.183729507029057 ] ] ] } },
{ "type": "Feature", "properties": { "OBJECTID": 5113, "TRIDA": 4, "CISLO_SILNICE": "366", "MEZINARODNI_OZNACENI": "N_A", "PRUHY": 2, "SHAPE_Length": 5629.6812960804446 }, "geometry": { "type": "MultiLineString", "coordinates": [ [ [ -565515.699712629895657, -1126205.812261083396152 ], [ -565129.023310903459787, -1126799.667780470103025 ], [ -561808.795172449201345, -1128691.958035837858915 ] ] ] } },
{ "type": "Feature", "properties": { "OBJECTID": 5268, "TRIDA": 5, "CISLO_SILNICE": "37752", "MEZINARODNI_OZNACENI": "N_A", "PRUHY": 2, "SHAPE_Length": 2586.5803106975441 }, "geometry": { "type": "MultiLineString", "coordinates": [ [ [ -564046.770819881232455, -1130063.931949231307954 ], [ -563927.692450474947691, -1129950.375943370163441 ], [ -562660.779134821146727, -1129359.75735917314887 ], [ -562285.867432061582804, -1129013.239004198461771 ] ] ] } },
{ "type": "Feature", "properties": { "OBJECTID": 5124, "TRIDA": 5, "CISLO_SILNICE": "36635", "MEZINARODNI_OZNACENI": "N_A", "PRUHY": 2, "SHAPE_Length": 2617.6360814465006 }, "geometry": { "type": "MultiLineString", "coordinates": [ [ [ -563144.765416823327541, -1124756.385571908205748 ], [ -563234.046480938792229, -1124944.910639815032482 ], [ -563183.756633445620537, -1125120.946322731673717 ], [ -562570.978043459355831, -1126102.911600980907679 ], [ -562077.37736926227808, -1126631.457477290183306 ], [ -561871.205251943320036, -1126908.443579781800508 ] ] ] } },
{ "type": "Feature", "properties": { "OBJECTID": 5656, "TRIDA": 4, "CISLO_SILNICE": "449", "MEZINARODNI_OZNACENI": "N_A", "PRUHY": 2, "SHAPE_Length": 1191.3163005989734 }, "geometry": { "type": "MultiLineString", "coordinates": [ [ [ -558566.948131512850523, -1129909.71114007756114 ], [ -558704.656689010560513, -1129506.071162648499012 ], [ -558561.144536674022675, -1128754.824055943638086 ] ] ] } },
{ "type": "Feature", "properties": { "OBJECTID": 5665, "TRIDA": 4, "CISLO_SILNICE": "449", "MEZINARODNI_OZNACENI": "N_A", "PRUHY": 2, "SHAPE_Length": 1374.9545998468548 }, "geometry": { "type": "MultiLineString", "coordinates": [ [ [ -558561.144536674022675, -1128754.824055943638086 ], [ -558593.665098663419485, -1127380.254099670797586 ] ] ] } },
{ "type": "Feature", "properties": { "OBJECTID": 5684, "TRIDA": 5, "CISLO_SILNICE": "44926", "MEZINARODNI_OZNACENI": "N_A", "PRUHY": 2, "SHAPE_Length": 1742.2201694972821 }, "geometry": { "type": "MultiLineString", "coordinates": [ [ [ -559891.860899358987808, -1128542.157186016440392 ], [ -558593.665098663419485, -1127380.254099670797586 ] ] ] } },
{ "type": "Feature", "properties": { "OBJECTID": 5685, "TRIDA": 5, "CISLO_SILNICE": "44927", "MEZINARODNI_OZNACENI": "N_A", "PRUHY": 2, "SHAPE_Length": 2586.2379696502303 }, "geometry": { "type": "MultiLineString", "coordinates": [ [ [ -561871.205251943320036, -1126908.443579781800508 ], [ -561442.182426951825619, -1127103.67451948300004 ], [ -559891.860899358987808, -1128542.157186016440392 ] ] ] } },
{ "type": "Feature", "properties": { "OBJECTID": 5308, "TRIDA": 5, "CISLO_SILNICE": "4354", "MEZINARODNI_OZNACENI": "N_A", "PRUHY": 2, "SHAPE_Length": 3072.9566155537204 }, "geometry": { "type": "MultiLineString", "coordinates": [ [ [ -551739.103582318872213, -1131177.253098469227552 ], [ -551084.263903666287661, -1132753.066089119762182 ], [ -550910.216874305508099, -1133465.615470309741795 ] ] ] } },
{ "type": "Feature", "properties": { "OBJECTID": 5112, "TRIDA": 4, "CISLO_SILNICE": "366", "MEZINARODNI_OZNACENI": "N_A", "PRUHY": 2, "SHAPE_Length": 317.45736025702996 }, "geometry": { "type": "MultiLineString", "coordinates": [ [ [ -561808.795172449201345, -1128691.958035837858915 ], [ -561948.862362574785948, -1128976.844605952501297 ] ] ] } },
{ "type": "Feature", "properties": { "OBJECTID": 5114, "TRIDA": 4, "CISLO_SILNICE": "366", "MEZINARODNI_OZNACENI": "N_A", "PRUHY": 2, "SHAPE_Length": 458.46155612370001 }, "geometry": { "type": "MultiLineString", "coordinates": [ [ [ -561948.862362574785948, -1128976.844605952501297 ], [ -561652.388859048485756, -1129098.316020000725985 ], [ -561650.577145598828793, -1129236.372426476329565 ] ] ] } },
{ "type": "Feature", "properties": { "OBJECTID": 5123, "TRIDA": 5, "CISLO_SILNICE": "36635", "MEZINARODNI_OZNACENI": "N_A", "PRUHY": 2, "SHAPE_Length": 1844.6832079632709 }, "geometry": { "type": "MultiLineString", "coordinates": [ [ [ -561871.205251943320036, -1126908.443579781800508 ], [ -561971.111775331199169, -1127076.745036162436008 ], [ -561873.237863466143608, -1128021.718007072806358 ], [ -561742.223478022962809, -1128439.239638533443213 ], [ -561808.795172449201345, -1128691.958035837858915 ] ] ] } },
{ "type": "Feature", "properties": { "OBJECTID": 5269, "TRIDA": 5, "CISLO_SILNICE": "37752", "MEZINARODNI_OZNACENI": "N_A", "PRUHY": 2, "SHAPE_Length": 338.96455431724178 }, "geometry": { "type": "MultiLineString", "coordinates": [ [ [ -562285.867432061582804, -1129013.239004198461771 ], [ -561948.862362574785948, -1128976.844605952501297 ] ] ] } },
{ "type": "Feature", "properties": { "OBJECTID": 5044, "TRIDA": 4, "CISLO_SILNICE": "150", "MEZINARODNI_OZNACENI": "N_A", "PRUHY": 2, "SHAPE_Length": 2636.5458166898648 }, "geometry": { "type": "MultiLineString", "coordinates": [ [ [ -552948.620593562722206, -1133977.875358853489161 ], [ -552236.566369166830555, -1134057.380055935820565 ] ] ] } },
{ "type": "Feature", "properties": { "OBJECTID": 5136, "TRIDA": 5, "CISLO_SILNICE": "3677", "MEZINARODNI_OZNACENI": "N_A", "PRUHY": 2, "SHAPE_Length": 3072.2973162065973 }, "geometry": { "type": "MultiLineString", "coordinates": [ [ [ -552948.620593562722206, -1133977.875358853489161 ], [ -552181.931925721466541, -1131805.742343612015247 ], [ -551739.103582318872213, -1131177.253098469227552 ] ] ] } },
{ "type": "Feature", "properties": { "OBJECTID": 5117, "TRIDA": 5, "CISLO_SILNICE": "36630", "MEZINARODNI_OZNACENI": "N_A", "PRUHY": 2, "SHAPE_Length": 4785.1860389109379 }, "geometry": { "type": "MultiLineString", "coordinates": [ [ [ -565450.270242935745046, -1122730.087949412409216 ], [ -565290.82285512983799, -1122705.590733375400305 ], [ -564987.703375495970249, -1122556.72306877374649 ] ] ] } },
{ "type": "Feature", "properties": { "OBJECTID": 5120, "TRIDA": 5, "CISLO_SILNICE": "36635", "MEZINARODNI_OZNACENI": "N_A", "PRUHY": 2, "SHAPE_Length": 1748.9511770781828 }, "geometry": { "type": "MultiLineString", "coordinates": [ [ [ -565259.904411865747534, -1121933.233482555951923 ], [ -564995.011521957814693, -1122222.04292968660593 ], [ -564987.703375495970249, -1122556.72306877374649 ] ] ] } },
{ "type": "Feature", "properties": { "OBJECTID": 5122, "TRIDA": 5, "CISLO_SILNICE": "36635", "MEZINARODNI_OZNACENI": "N_A", "PRUHY": 2, "SHAPE_Length": 535.83741625944197 }, "geometry": { "type": "MultiLineString", "coordinates": [ [ [ -564987.703375495970249, -1122556.72306877374649 ], [ -564474.872519917786121, -1122712.049339026212692 ] ] ] } },
{ "type": "Feature", "properties": { "OBJECTID": 5298, "TRIDA": 5, "CISLO_SILNICE": "4353", "MEZINARODNI_OZNACENI": "N_A", "PRUHY": 2, "SHAPE_Length": 738.45425630850309 }, "geometry": { "type": "MultiLineString", "coordinates": [ [ [ -552327.981175374239683, -1129747.450067304074764 ], [ -551589.572525002062321, -1129755.656998258084059 ] ] ] } },
{ "type": "Feature", "properties": { "OBJECTID": 5300, "TRIDA": 5, "CISLO_SILNICE": "4353", "MEZINARODNI_OZNACENI": "N_A", "PRUHY": 2, "SHAPE_Length": 280.72058564344928 }, "geometry": { "type": "MultiLineString", "coordinates": [ [ [ -552604.01366176083684, -1129798.539338812232018 ], [ -552327.981175374239683, -1129747.450067304074764 ] ] ] } },
{ "type": "Feature", "properties": { "OBJECTID": 5306, "TRIDA": 5, "CISLO_SILNICE": "4354", "MEZINARODNI_OZNACENI": "N_A", "PRUHY": 2, "SHAPE_Length": 1127.3559922765567 }, "geometry": { "type": "MultiLineString", "coordinates": [ [ [ -552604.01366176083684, -1129798.539338812232018 ], [ -551990.486113801598549, -1130744.327624432742596 ] ] ] } },
{ "type": "Feature", "properties": { "OBJECTID": 5307, "TRIDA": 5, "CISLO_SILNICE": "4354", "MEZINARODNI_OZNACENI": "N_A", "PRUHY": 2, "SHAPE_Length": 133.17201266684103 }, "geometry": { "type": "MultiLineString", "coordinates": [ [ [ -551809.779091466218233, -1131064.382564827799797 ], [ -551739.103582318872213, -1131177.253098469227552 ] ] ] } },
{ "type": "Feature", "properties": { "OBJECTID": 5309, "TRIDA": 5, "CISLO_SILNICE": "4354", "MEZINARODNI_OZNACENI": "N_A", "PRUHY": 2, "SHAPE_Length": 367.54617776900261 }, "geometry": { "type": "MultiLineString", "coordinates": [ [ [ -551990.486113801598549, -1130744.327624432742596 ], [ -551809.779091466218233, -1131064.382564827799797 ] ] ] } },
{ "type": "Feature", "properties": { "OBJECTID": 5313, "TRIDA": 5, "CISLO_SILNICE": "4357", "MEZINARODNI_OZNACENI": "N_A", "PRUHY": 2, "SHAPE_Length": 1115.8431861883137 }, "geometry": { "type": "MultiLineString", "coordinates": [ [ [ -551990.486113801598549, -1130744.327624432742596 ], [ -551735.713277101516724, -1130514.301833014935255 ], [ -551589.572525002062321, -1129755.656998258084059 ] ] ] } }
]
}
