{"type":"FeatureCollection","features":[{"type":"Feature","id":"obceORP_clip.1","geometry":{"type":"MultiPolygon","coordinates":[[[[17.27341606,49.53751178],[17.27003333,49.53759294],[17.26688666,49.54310943],[17.2625466,49.5433349],[17.2577246,49.54797482],[17.25144348,49.54732431],[17.2479383,49.54489244],[17.24418425,49.5462486],[17.24216715,49.54928056],[17.24001175,49.54887875],[17.2404077,49.54769356],[17.23044179,49.54593538],[17.22220473,49.54613218],[17.21828919,49.54797407],[17.21039126,49.55310807],[17.20558372,49.54954177],[17.20335752,49.55025522],[17.19177045,49.54737589],[17.18422022,49.55548609],[17.18643312,49.55695002],[17.18372512,49.55896915],[17.20147056,49.56532309],[17.20029012,49.57453598],[17.20963788,49.57731347],[17.21517154,49.58148686],[17.21184121,49.58062868],[17.2086155,49.584413],[17.20306477,49.58343604],[17.20242571,49.58491711],[17.19681775,49.584458],[17.17578284,49.58042824],[17.16722966,49.57655222],[17.16347439,49.58071657],[17.16297786,49.58197638],[17.17221502,49.58237292],[17.16693945,49.59017933],[17.16797417,49.59891361],[17.1719555,49.59984267],[17.17156672,49.60109713],[17.17330021,49.60332849],[17.17777174,49.60450173],[17.1840323,49.60468904],[17.18754712,49.60418637],[17.18700706,49.60246125],[17.18886885,49.60203144],[17.1903693,49.60457826],[17.19897914,49.60298859],[17.19643,49.6064553],[17.20126021,49.60869468],[17.20740642,49.61001638],[17.21678356,49.6089542],[17.22031408,49.61075585],[17.21596996,49.61360934],[17.22231266,49.61685866],[17.22394801,49.61939558],[17.22649156,49.61806058],[17.22775442,49.61904612],[17.2258998,49.62205239],[17.22789748,49.62303137],[17.23525747,49.62139397],[17.23287818,49.62362858],[17.232946,49.62358793],[17.23384764,49.62303772],[17.23474167,49.62248229],[17.23562799,49.62192169],[17.23650655,49.62135595],[17.23737727,49.62078513],[17.23824008,49.62020927],[17.23909491,49.61962841],[17.2399417,49.61904261],[17.24078037,49.61845191],[17.24161087,49.61785635],[17.24243312,49.61725599],[17.24324706,49.61665088],[17.24405263,49.61604106],[17.24484975,49.61542657],[17.24563837,49.61480748],[17.24641842,49.61418383],[17.24718984,49.61355567],[17.24795257,49.61292304],[17.24870655,49.61228601],[17.24945172,49.61164462],[17.25018802,49.61099892],[17.25091538,49.61034897],[17.25163376,49.60969482],[17.2523431,49.60903651],[17.25304333,49.60837411],[17.25373441,49.60770766],[17.25441627,49.60703722],[17.25508887,49.60636284],[17.25575215,49.60568458],[17.25640605,49.60500249],[17.25705053,49.60431663],[17.25768554,49.60362704],[17.25831102,49.6029338],[17.25892692,49.60223694],[17.2595332,49.60153653],[17.2601298,49.60083262],[17.26071669,49.60012527],[17.2612938,49.59941454],[17.26186111,49.59870048],[17.26241855,49.59798315],[17.2629661,49.59726261],[17.2635037,49.59653892],[17.26403131,49.59581212],[17.26454889,49.59508229],[17.2650564,49.59434948],[17.2655538,49.59361375],[17.26604105,49.59287515],[17.26651811,49.59213376],[17.26698495,49.59138961],[17.26744152,49.59064278],[17.26788779,49.58989333],[17.26832372,49.58914132],[17.26874929,49.58838679],[17.26916445,49.58762983],[17.26956918,49.58687048],[17.26996344,49.58610881],[17.2703472,49.58534487],[17.27072044,49.58457874],[17.27108311,49.58381046],[17.2714352,49.58304011],[17.27177667,49.58226774],[17.27210751,49.58149342],[17.27242767,49.5807172],[17.27273715,49.57993916],[17.2730359,49.57915934],[17.27332392,49.57837782],[17.27360118,49.57759466],[17.27386765,49.57680991],[17.27412331,49.57602365],[17.27436815,49.57523593],[17.27460215,49.57444682],[17.27482529,49.57365638],[17.27503754,49.57286467],[17.2752389,49.57207176],[17.27542935,49.57127772],[17.27560888,49.57048259],[17.27577746,49.56968646],[17.27593509,49.56888937],[17.27608175,49.5680914],[17.27621744,49.56729262],[17.27634215,49.56649307],[17.27645585,49.56569283],[17.27655856,49.56489196],[17.27665025,49.56409052],[17.27673092,49.56328859],[17.27680057,49.56248621],[17.27685918,49.56168347],[17.27690677,49.56088041],[17.27694331,49.56007711],[17.27696882,49.55927363],[17.27698328,49.55847004],[17.27698671,49.55766639],[17.27697909,49.55686275],[17.27696043,49.55605919],[17.27693074,49.55525577],[17.27689001,49.55445255],[17.27683824,49.55364961],[17.27677545,49.55284699],[17.27670164,49.55204477],[17.27661682,49.55124302],[17.27652098,49.55044179],[17.27641415,49.54964114],[17.27629633,49.54884115],[17.27616752,49.54804188],[17.27602775,49.54724339],[17.27587702,49.54644574],[17.27571534,49.545649],[17.27554274,49.54485323],[17.27535921,49.5440585],[17.27516478,49.54326486],[17.27495947,49.54247239],[17.27474328,49.54168114],[17.27451625,49.54089118],[17.27427838,49.54010258],[17.2740297,49.53931538],[17.27377022,49.53852967],[17.27349998,49.53774549],[17.27341606,49.53751178]]]]},"geometry_name":"the_geom","properties":{"AREA":102644072,"PERIMETER":83316,"ICZUJ":"500496","NAZEV":"Olomouc","OB91":102786,"OB01":103299,"OB_311202":101624,"NUTS5":"CZ0712500496","NUTS4":"CZ0712","NUTS3":"CZ071","KRAJ1960":"3800","NUTS2":"CZ07","NK":"OL","KODOK":"3805","KODOB":"11050","KO":"7","ICOBCE":"500496","OM":"3","UR":"1","SM":"11","PSC":"77200","KODST":"11050","KODFI":"11050","KODMA":"11050","SYOB":547169,"SXOB":1121464,"SYOB1":-547169,"SXOB1":-1121464,"MAPA":"24-22-19","CISPOU":"71072","OKPO":"3805","KODPO":"11050","NAZPO":"Olomouc","CISORP":"7107","OKORP":"3805","KODORP":"11050","NAZORP":"Olomouc","NAZEV_ENG":"Olomouc","NAZPO_ENG":"Olomouc","NAZORP_ENG":"Olomouc"}},{"type":"Feature","id":"obceORP_clip.2","geometry":{"type":"MultiPolygon","coordinates":[[[[17.2720205,49.53392782],[17.27198797,49.53384989],[17.27165358,49.53307626],[17.2713086,49.5323046],[17.27095304,49.53153498],[17.27058694,49.53076746],[17.27021033,49.5300021],[17.26982324,49.52923896],[17.26942569,49.5284781],[17.26901773,49.52771958],[17.26859938,49.52696346],[17.26817068,49.52620981],[17.26773166,49.52545868],[17.26728236,49.52471013],[17.26682281,49.52396422],[17.26635305,49.52322101],[17.26611234,49.52284963],[17.26065989,49.52203217],[17.26019583,49.52407143],[17.25596904,49.52257796],[17.25276922,49.52432257],[17.23888321,49.52301568],[17.2293682,49.51904526],[17.22336607,49.51886292],[17.212496,49.5137365],[17.20683806,49.51486795],[17.2021099,49.51910522],[17.2034632,49.52650429],[17.21023976,49.52951234],[17.21243341,49.53326085],[17.21496218,49.52979271],[17.23981437,49.53366677],[17.24029338,49.53217069],[17.25053397,49.53047606],[17.26205439,49.5307248],[17.27106366,49.53447882],[17.2720205,49.53392782]]]]},"geometry_name":"the_geom","properties":{"AREA":6647245,"PERIMETER":15077,"ICZUJ":"500801","NAZEV":"Blatec","OB91":569,"OB01":573,"OB_311202":567,"NUTS5":"CZ0712500801","NUTS4":"CZ0712","NUTS3":"CZ071","KRAJ1960":"3800","NUTS2":"CZ07","NK":"OL","KODOK":"3805","KODOB":"00520","KO":"7","ICOBCE":"500801","OM":"8","UR":"4","SM":"","PSC":"78375","KODST":"11050","KODFI":"11050","KODMA":"11050","SYOB":548777,"SXOB":1128627,"SYOB1":-548777,"SXOB1":-1128627,"MAPA":"24-24-04","CISPOU":"71072","OKPO":"3805","KODPO":"11050","NAZPO":"Olomouc","CISORP":"7107","OKORP":"3805","KODORP":"11050","NAZORP":"Olomouc","NAZEV_ENG":"Blatec","NAZPO_ENG":"Olomouc","NAZORP_ENG":"Olomouc"}},{"type":"Feature","id":"obceORP_clip.3","geometry":{"type":"MultiPolygon","coordinates":[[[[17.21828919,49.54797407],[17.21243341,49.53326085],[17.21023976,49.52951234],[17.2034632,49.52650429],[17.18942744,49.52275073],[17.18599079,49.52583375],[17.18115822,49.5363172],[17.1748718,49.53824668],[17.17901146,49.54385839],[17.16502078,49.55001894],[17.18372512,49.55896915],[17.18643312,49.55695002],[17.18422022,49.55548609],[17.19177045,49.54737589],[17.20335752,49.55025522],[17.20558372,49.54954177],[17.21039126,49.55310807],[17.21828919,49.54797407]]]]},"geometry_name":"the_geom","properties":{"AREA":7773431,"PERIMETER":13560,"ICZUJ":"500879","NAZEV":"Bystroèice","OB91":606,"OB01":589,"OB_311202":595,"NUTS5":"CZ0712500879","NUTS4":"CZ0712","NUTS3":"CZ071","KRAJ1960":"3800","NUTS2":"CZ07","NK":"OL","KODOK":"3805","KODOB":"01667","KO":"5","ICOBCE":"500879","OM":"8","UR":"4","SM":"","PSC":"77200","KODST":"08912","KODFI":"11050","KODMA":"11050","SYOB":551934,"SXOB":1127428,"SYOB1":-551934,"SXOB1":-1127428,"MAPA":"24-24-03","CISPOU":"71072","OKPO":"3805","KODPO":"11050","NAZPO":"Olomouc","CISORP":"7107","OKORP":"3805","KODORP":"11050","NAZORP":"Olomouc","NAZEV_ENG":"Bystrocice","NAZPO_ENG":"Olomouc","NAZORP_ENG":"Olomouc"}},{"type":"Feature","id":"obceORP_clip.4","geometry":{"type":"MultiPolygon","coordinates":[[[[17.0958202,49.59107158],[17.09779244,49.5908674],[17.09915125,49.58726962],[17.09430998,49.5859738],[17.09400316,49.5781808],[17.08841375,49.57881458],[17.08840105,49.56890793],[17.07087232,49.56457483],[17.05797723,49.56426154],[17.05626576,49.56135495],[17.05857473,49.55744999],[17.06375212,49.5560764],[17.06024259,49.55235454],[17.06051949,49.55565392],[17.05498852,49.55736543],[17.05328259,49.55604089],[17.05082791,49.55723353],[17.04941019,49.55638002],[17.0447692,49.55937047],[17.03900756,49.55766735],[17.0361267,49.5598708],[17.04050322,49.56176206],[17.0381664,49.56415544],[17.03407948,49.56338612],[17.03060033,49.56706814],[17.03127797,49.57173216],[17.0185435,49.5804824],[17.01780879,49.58355183],[17.01980099,49.5864326],[17.0363844,49.58551294],[17.04399844,49.58996037],[17.05885091,49.59174236],[17.06253119,49.59142615],[17.06158831,49.58709746],[17.07159818,49.58621556],[17.09474949,49.58829849],[17.0958202,49.59107158]]]]},"geometry_name":"the_geom","properties":{"AREA":13334273,"PERIMETER":20491,"ICZUJ":"501751","NAZEV":"Drahanovice","OB91":1604,"OB01":1706,"OB_311202":1713,"NUTS5":"CZ0712501751","NUTS4":"CZ0712","NUTS3":"CZ071","KRAJ1960":"3800","NUTS2":"CZ07","NK":"OL","KODOK":"3805","KODOB":"03147","KO":"0","ICOBCE":"501751","OM":"8","UR":"4","SM":"","PSC":"78344","KODST":"10154","KODFI":"11050","KODMA":"03147","SYOB":559847,"SXOB":1121899,"SYOB1":-559847,"SXOB1":-1121899,"MAPA":"24-22-17","CISPOU":"71072","OKPO":"3805","KODPO":"11050","NAZPO":"Olomouc","CISORP":"7107","OKORP":"3805","KODORP":"11050","NAZORP":"Olomouc","NAZEV_ENG":"Drahanovice","NAZPO_ENG":"Olomouc","NAZORP_ENG":"Olomouc"}},{"type":"Feature","id":"obceORP_clip.5","geometry":{"type":"MultiPolygon","coordinates":[[[[17.22979417,49.49010834],[17.22812125,49.49292072],[17.22637286,49.496747],[17.22291911,49.49801338],[17.22763029,49.49946747],[17.22952025,49.49832748],[17.24820399,49.50286536],[17.24772969,49.5024659],[17.24696614,49.50183456],[17.24619397,49.50120768],[17.24541326,49.50058531],[17.24462405,49.49996751],[17.24382642,49.49935432],[17.24302042,49.49874579],[17.24220612,49.49814197],[17.2413836,49.49754291],[17.2405529,49.49694866],[17.2397141,49.49635926],[17.23886727,49.49577476],[17.23801247,49.49519521],[17.23714978,49.49462065],[17.23627925,49.49405113],[17.23540097,49.49348669],[17.23451499,49.49292738],[17.2336214,49.49237325],[17.23272026,49.49182433],[17.23181165,49.49128067],[17.23089563,49.49074232],[17.22997228,49.49020931],[17.22979417,49.49010834]]]]},"geometry_name":"the_geom","properties":{"AREA":15397160,"PERIMETER":19561,"ICZUJ":"501794","NAZEV":"Dub nad Moravou","OB91":1318,"OB01":1430,"OB_311202":1472,"NUTS5":"CZ0712501794","NUTS4":"CZ0712","NUTS3":"CZ071","KRAJ1960":"3800","NUTS2":"CZ07","NK":"OL","KODOK":"3805","KODOB":"03327","KO":"8","ICOBCE":"501794","OM":"8","UR":"4","SM":"","PSC":"78375","KODST":"03327","KODFI":"11050","KODMA":"03327","SYOB":546495,"SXOB":1133979,"SYOB1":-546495,"SXOB1":-1133979,"MAPA":"24-24-10","CISPOU":"71072","OKPO":"3805","KODPO":"11050","NAZPO":"Olomouc","CISORP":"7107","OKORP":"3805","KODORP":"11050","NAZORP":"Olomouc","NAZEV_ENG":"Dub nad Moravou","NAZPO_ENG":"Olomouc","NAZORP_ENG":"Olomouc"}},{"type":"Feature","id":"obceORP_clip.6","geometry":{"type":"MultiPolygon","coordinates":[[[[17.18372512,49.55896915],[17.16502078,49.55001894],[17.16562802,49.55401703],[17.16329608,49.55481321],[17.15405848,49.54928686],[17.14836188,49.55261164],[17.15169066,49.55581469],[17.1384005,49.5710379],[17.14409663,49.57308393],[17.14453737,49.57491131],[17.1498498,49.57760962],[17.16347439,49.58071657],[17.16722966,49.57655222],[17.17578284,49.58042824],[17.19681775,49.584458],[17.20242571,49.58491711],[17.20306477,49.58343604],[17.2086155,49.584413],[17.21184121,49.58062868],[17.21517154,49.58148686],[17.20963788,49.57731347],[17.20029012,49.57453598],[17.20147056,49.56532309],[17.18372512,49.55896915]]]]},"geometry_name":"the_geom","properties":{"AREA":11589719,"PERIMETER":16826,"ICZUJ":"502235","NAZEV":"Hnìvotín","OB91":1044,"OB01":1133,"OB_311202":1163,"NUTS5":"CZ0712502235","NUTS4":"CZ0712","NUTS3":"CZ071","KRAJ1960":"3800","NUTS2":"CZ07","NK":"OL","KODOK":"3805","KODOB":"04015","KO":"1","ICOBCE":"502235","OM":"8","UR":"4","SM":"","PSC":"78347","KODST":"08912","KODFI":"11050","KODMA":"11050","SYOB":552543,"SXOB":1123365,"SYOB1":-552543,"SXOB1":-1123365,"MAPA":"24-22-18","CISPOU":"71072","OKPO":"3805","KODPO":"11050","NAZPO":"Olomouc","CISORP":"7107","OKORP":"3805","KODORP":"11050","NAZORP":"Olomouc","NAZEV_ENG":"Hnevotin","NAZPO_ENG":"Olomouc","NAZORP_ENG":"Olomouc"}},{"type":"Feature","id":"obceORP_clip.7","geometry":{"type":"MultiPolygon","coordinates":[[[[17.23287818,49.62362858],[17.23525747,49.62139397],[17.22789748,49.62303137],[17.2258998,49.62205239],[17.21787793,49.62555293],[17.21367018,49.62498142],[17.21106112,49.62279673],[17.20801252,49.62400824],[17.20537972,49.62243635],[17.20439317,49.62384514],[17.19698593,49.62519747],[17.19428639,49.62252752],[17.18628095,49.6221684],[17.17898339,49.62597349],[17.17920117,49.63001815],[17.18795372,49.63445339],[17.18703569,49.63945978],[17.18997112,49.64126594],[17.19037164,49.64116261],[17.19151755,49.64085922],[17.19265924,49.64054918],[17.19379659,49.64023252],[17.19492953,49.63990925],[17.19605796,49.63957941],[17.19718179,49.63924302],[17.19830093,49.63890012],[17.19941529,49.63855072],[17.20052478,49.63819485],[17.20162931,49.63783255],[17.2027288,49.63746385],[17.20382315,49.63708876],[17.20491228,49.63670733],[17.20599609,49.63631958],[17.20707452,49.63592554],[17.20814746,49.63552525],[17.20921483,49.63511874],[17.21027654,49.63470604],[17.21133252,49.63428718],[17.21238267,49.6338622],[17.21342692,49.63343114],[17.21446517,49.63299401],[17.21549735,49.63255087],[17.21652337,49.63210175],[17.21754315,49.63164668],[17.2185566,49.6311857],[17.21956366,49.63071884],[17.22056423,49.63024615],[17.22155824,49.62976766],[17.22254561,49.62928341],[17.22352625,49.62879344],[17.22450009,49.62829778],[17.22546706,49.62779649],[17.22642707,49.62728959],[17.22738005,49.62677713],[17.22832591,49.62625916],[17.2292646,49.6257357],[17.23019602,49.62520681],[17.23112011,49.62467252],[17.23203679,49.62413288],[17.23287818,49.62362858]]]]},"geometry_name":"the_geom","properties":{"AREA":11802946,"PERIMETER":22635,"ICZUJ":"502545","NAZEV":"Horka nad Moravou","OB91":2054,"OB01":2073,"OB_311202":2089,"NUTS5":"CZ0712502545","NUTS4":"CZ0712","NUTS3":"CZ071","KRAJ1960":"3800","NUTS2":"CZ07","NK":"OL","KODOK":"3805","KODOB":"04206","KO":"4","ICOBCE":"502545","OM":"8","UR":"4","SM":"","PSC":"78335","KODST":"11050","KODFI":"11050","KODMA":"04206","SYOB":549547,"SXOB":1116061,"SYOB1":-549547,"SXOB1":-1116061,"MAPA":"24-22-09","CISPOU":"71072","OKPO":"3805","KODPO":"11050","NAZPO":"Olomouc","CISORP":"7107","OKORP":"3805","KODORP":"11050","NAZORP":"Olomouc","NAZEV_ENG":"Horka nad Moravou","NAZPO_ENG":"Olomouc","NAZORP_ENG":"Olomouc"}},{"type":"Feature","id":"obceORP_clip.8","geometry":{"type":"MultiPolygon","coordinates":[[[[17.27341606,49.53751178],[17.27321898,49.53696291],[17.27292726,49.536182],[17.27262483,49.53540282],[17.27231173,49.53462543],[17.2720205,49.53392782],[17.27106366,49.53447882],[17.26205439,49.5307248],[17.25053397,49.53047606],[17.24029338,49.53217069],[17.23981437,49.53366677],[17.21496218,49.52979271],[17.21243341,49.53326085],[17.21828919,49.54797407],[17.22220473,49.54613218],[17.23044179,49.54593538],[17.2404077,49.54769356],[17.24001175,49.54887875],[17.24216715,49.54928056],[17.24418425,49.5462486],[17.2479383,49.54489244],[17.25144348,49.54732431],[17.2577246,49.54797482],[17.2625466,49.5433349],[17.26688666,49.54310943],[17.27003333,49.53759294],[17.27341606,49.53751178]]]]},"geometry_name":"the_geom","properties":{"AREA":6641083,"PERIMETER":13002,"ICZUJ":"503304","NAZEV":"Kouany-Táaly","OB91":773,"OB01":808,"OB_311202":827,"NUTS5":"CZ0712503304","NUTS4":"CZ0712","NUTS3":"CZ071","KRAJ1960":"3800","NUTS2":"CZ07","NK":"OL","KODOK":"3805","KODOB":"07210","KO":"9","ICOBCE":"503304","OM":"8","UR":"4","SM":"","PSC":"78375","KODST":"11050","KODFI":"11050","KODMA":"11050","SYOB":547553,"SXOB":1127477,"SYOB1":-547553,"SXOB1":-1127477,"MAPA":"24-22-24","CISPOU":"71072","OKPO":"3805","KODPO":"11050","NAZPO":"Olomouc","CISORP":"7107","OKORP":"3805","KODORP":"11050","NAZORP":"Olomouc","NAZEV_ENG":"Kozusany-Tazaly","NAZPO_ENG":"Olomouc","NAZORP_ENG":"Olomouc"}},{"type":"Feature","id":"obceORP_clip.9","geometry":{"type":"MultiPolygon","coordinates":[[[[17.1384005,49.5710379],[17.15169066,49.55581469],[17.14836188,49.55261164],[17.15405848,49.54928686],[17.15311929,49.5467987],[17.13437449,49.54535051],[17.12978028,49.53028964],[17.12258105,49.53019282],[17.12021051,49.5326056],[17.1188219,49.53217063],[17.10863542,49.54510986],[17.1066168,49.55247815],[17.10847318,49.55447152],[17.11980398,49.55692673],[17.11860683,49.56047202],[17.12502079,49.56366901],[17.12475101,49.56648005],[17.12222306,49.56805791],[17.12223137,49.56921529],[17.12772672,49.56945949],[17.13411533,49.57231076],[17.1384005,49.5710379]]]]},"geometry_name":"the_geom","properties":{"AREA":8474682,"PERIMETER":13796,"ICZUJ":"503657","NAZEV":"Lutín","OB91":3331,"OB01":3223,"OB_311202":3208,"NUTS5":"CZ0712503657","NUTS4":"CZ0712","NUTS3":"CZ071","KRAJ1960":"3800","NUTS2":"CZ07","NK":"OL","KODOK":"3805","KODOB":"08912","KO":"5","ICOBCE":"503657","OM":"8","UR":"4","SM":"","PSC":"78349","KODST":"08912","KODFI":"11050","KODMA":"08912","SYOB":555848,"SXOB":1124552,"SYOB1":-555848,"SXOB1":-1124552,"MAPA":"24-22-23","CISPOU":"71072","OKPO":"3805","KODPO":"11050","NAZPO":"Olomouc","CISORP":"7107","OKORP":"3805","KODORP":"11050","NAZORP":"Olomouc","NAZEV_ENG":"Lutin","NAZPO_ENG":"Olomouc","NAZORP_ENG":"Olomouc"}},{"type":"Feature","id":"obceORP_clip.10","geometry":{"type":"MultiPolygon","coordinates":[[[[17.13394447,49.64759841],[17.13392903,49.64562867],[17.12401796,49.63380735],[17.12229717,49.63440819],[17.11964124,49.63229948],[17.1212492,49.63052542],[17.1194543,49.62952168],[17.10690168,49.63448845],[17.11003035,49.63750526],[17.10804812,49.63822425],[17.11056811,49.64255659],[17.10584901,49.64507133],[17.10655558,49.64518343],[17.1077604,49.64536718],[17.10896771,49.64554391],[17.11017741,49.64571362],[17.11138941,49.64587629],[17.1126036,49.64603191],[17.1138199,49.64618046],[17.1150382,49.64632193],[17.11625841,49.64645632],[17.11748042,49.6465836],[17.11870414,49.64670378],[17.11992947,49.64681683],[17.12115632,49.64692276],[17.12238458,49.64702155],[17.12361415,49.6471132],[17.12484494,49.64719769],[17.12607685,49.64727503],[17.12730978,49.64734519],[17.12854363,49.64740819],[17.12977829,49.64746401],[17.13101368,49.64751265],[17.13224969,49.64755411],[17.13348623,49.64758838],[17.13394447,49.64759841]]]]},"geometry_name":"the_geom","properties":{"AREA":11636565,"PERIMETER":18935,"ICZUJ":"504441","NAZEV":"Náklo","OB91":1325,"OB01":1431,"OB_311202":1429,"NUTS5":"CZ0712504441","NUTS4":"CZ0712","NUTS3":"CZ071","KRAJ1960":"3800","NUTS2":"CZ07","NK":"OL","KODOK":"3805","KODOB":"10140","KO":"1","ICOBCE":"504441","OM":"8","UR":"4","SM":"","PSC":"78332","KODST":"08590","KODFI":"08590","KODMA":"10140","SYOB":555206,"SXOB":1113867,"SYOB1":-555206,"SXOB1":-1113867,"MAPA":"24-22-07","CISPOU":"71051","OKPO":"3805","KODPO":"08590","NAZPO":"Litovel","CISORP":"7105","OKORP":"3805","KODORP":"08590","NAZORP":"Litovel","NAZEV_ENG":"Naklo","NAZPO_ENG":"Litovel","NAZORP_ENG":"Litovel"}},{"type":"Feature","id":"obceORP_clip.11","geometry":{"type":"MultiPolygon","coordinates":[[[[17.0882983,49.61372107],[17.08782998,49.61058104],[17.09129647,49.61049373],[17.09009723,49.60669084],[17.08361708,49.60769055],[17.07750748,49.60661757],[17.07538057,49.60461492],[17.07594973,49.60154345],[17.08204826,49.59818713],[17.08200994,49.59632273],[17.08660168,49.5963191],[17.08939273,49.59163207],[17.0958202,49.59107158],[17.09474949,49.58829849],[17.07159818,49.58621556],[17.06158831,49.58709746],[17.06253119,49.59142615],[17.05885091,49.59174236],[17.04399844,49.58996037],[17.0363844,49.58551294],[17.01980099,49.5864326],[17.01683339,49.58656],[17.01091577,49.59198885],[17.01123002,49.59248379],[17.0117119,49.59322388],[17.01220394,49.59396114],[17.01270612,49.59469551],[17.01321839,49.59542693],[17.01374071,49.59615534],[17.01427304,49.59688068],[17.01481534,49.5976029],[17.01536757,49.59832194],[17.01592967,49.59903774],[17.01650162,49.59975024],[17.01708335,49.60045939],[17.01767483,49.60116513],[17.01827601,49.6018674],[17.01888684,49.60256615],[17.01950727,49.60326131],[17.02013725,49.60395284],[17.02077674,49.60464069],[17.02142567,49.60532478],[17.02208401,49.60600508],[17.0227517,49.60668152],[17.02342868,49.60735405],[17.0241149,49.60802261],[17.02481031,49.60868717],[17.02551485,49.60934765],[17.02622846,49.610004],[17.0269511,49.61065619],[17.02768269,49.61130414],[17.02842318,49.61194782],[17.02917252,49.61258716],[17.02993064,49.61322213],[17.03069749,49.61385266],[17.031473,49.6144787],[17.0322571,49.61510021],[17.03304975,49.61571714],[17.03385087,49.61632943],[17.0346604,49.61693704],[17.03547827,49.61753993],[17.03630443,49.61813803],[17.0371388,49.6187313],[17.03798132,49.6193197],[17.03883191,49.61990318],[17.03969053,49.62048168],[17.040451,49.62098497],[17.05717239,49.62122283],[17.0882983,49.61372107]]]]},"geometry_name":"the_geom","properties":{"AREA":18701521,"PERIMETER":21388,"ICZUJ":"504505","NAZEV":"Námì na Hané","OB91":1818,"OB01":1878,"OB_311202":1871,"NUTS5":"CZ0712504505","NUTS4":"CZ0712","NUTS3":"CZ071","KRAJ1960":"3800","NUTS2":"CZ07","NK":"OL","KODOK":"3805","KODOB":"10154","KO":"1","ICOBCE":"504505","OM":"8","UR":"4","SM":"","PSC":"78344","KODST":"10154","KODFI":"11050","KODMA":"10154","SYOB":560417,"SXOB":1119206,"SYOB1":-560417,"SXOB1":-1119206,"MAPA":"24-22-17","CISPOU":"71072","OKPO":"3805","KODPO":"11050","NAZPO":"Olomouc","CISORP":"7107","OKORP":"3805","KODORP":"11050","NAZORP":"Olomouc","NAZEV_ENG":"Namest na Hane","NAZPO_ENG":"Olomouc","NAZORP_ENG":"Olomouc"}},{"type":"Feature","id":"obceORP_clip.12","geometry":{"type":"MultiPolygon","coordinates":[[[[17.16379738,49.64616849],[17.16859408,49.64379135],[17.16733247,49.641897],[17.16810606,49.63665188],[17.16743456,49.63299319],[17.16479481,49.62974803],[17.16340861,49.62893554],[17.16112233,49.62878599],[17.14569894,49.61721469],[17.14548295,49.61560544],[17.14306687,49.6163959],[17.13504964,49.61883401],[17.13623755,49.62271676],[17.13235019,49.62416958],[17.13307293,49.6267385],[17.1212492,49.63052542],[17.11964124,49.63229948],[17.12229717,49.63440819],[17.12401796,49.63380735],[17.13392903,49.64562867],[17.13394447,49.64759841],[17.13472319,49.64761546],[17.13596047,49.64763535],[17.13719798,49.64764804],[17.13843561,49.64765353],[17.13967327,49.64765183],[17.14091086,49.64764294],[17.14214827,49.64762685],[17.14338541,49.64760357],[17.14462219,49.64757309],[17.14585849,49.64753543],[17.14709421,49.64749058],[17.14832928,49.64743854],[17.14956357,49.64737933],[17.15079699,49.64731295],[17.15202945,49.64723939],[17.15326084,49.64715868],[17.15449107,49.64707081],[17.15572003,49.64697578],[17.15694763,49.64687362],[17.15817378,49.64676433],[17.15939836,49.64664791],[17.16062128,49.64652437],[17.16184245,49.64639373],[17.16306177,49.646256],[17.16379738,49.64616849]]]]},"geometry_name":"the_geom","properties":{"AREA":14161929,"PERIMETER":23511,"ICZUJ":"505013","NAZEV":"Pøíkazy","OB91":1207,"OB01":1207,"OB_311202":1191,"NUTS5":"CZ0712505013","NUTS4":"CZ0712","NUTS3":"CZ071","KRAJ1960":"3800","NUTS2":"CZ07","NK":"OL","KODOK":"3805","KODOB":"13600","KO":"0","ICOBCE":"505013","OM":"8","UR":"4","SM":"","PSC":"78333","KODST":"08590","KODFI":"11050","KODMA":"10140","SYOB":554346,"SXOB":1115186,"SYOB1":-554346,"SXOB1":-1115186,"MAPA":"24-22-08","CISPOU":"71072","OKPO":"3805","KODPO":"11050","NAZPO":"Olomouc","CISORP":"7107","OKORP":"3805","KODORP":"11050","NAZORP":"Olomouc","NAZEV_ENG":"Prikazy","NAZPO_ENG":"Olomouc","NAZORP_ENG":"Olomouc"}},{"type":"Feature","id":"obceORP_clip.13","geometry":{"type":"MultiPolygon","coordinates":[[[[17.10690168,49.63448845],[17.1194543,49.62952168],[17.1212492,49.63052542],[17.13307293,49.6267385],[17.13235019,49.62416958],[17.13623755,49.62271676],[17.13504964,49.61883401],[17.14306687,49.6163959],[17.1370392,49.61448206],[17.13766086,49.60991378],[17.13381358,49.61003167],[17.13263121,49.6134244],[17.12853686,49.61431217],[17.12555202,49.61341102],[17.1196915,49.61495959],[17.11445371,49.60883972],[17.10187114,49.61273721],[17.09919394,49.61146701],[17.0882983,49.61372107],[17.05717239,49.62122283],[17.040451,49.62098497],[17.04055708,49.62105518],[17.04143152,49.62162361],[17.04231375,49.62218693],[17.04320372,49.62274511],[17.04410136,49.62329808],[17.04500659,49.62384582],[17.04591933,49.62438827],[17.04683953,49.62492539],[17.04761607,49.62537056],[17.05203544,49.62661235],[17.07082778,49.62631254],[17.07214593,49.62937337],[17.08099543,49.63016668],[17.08515145,49.6335595],[17.09643566,49.63041825],[17.09950197,49.63599804],[17.09035313,49.63694887],[17.08984609,49.64023232],[17.08210065,49.63858187],[17.08157842,49.6365861],[17.07443843,49.63474012],[17.07274398,49.63667062],[17.07249582,49.63666513],[17.07312567,49.63688822],[17.07421728,49.63726666],[17.07531407,49.63763874],[17.07641596,49.63800443],[17.07752285,49.63836369],[17.07863465,49.63871651],[17.07975128,49.63906285],[17.08087265,49.63940268],[17.08199867,49.63973598],[17.08312924,49.64006272],[17.08426428,49.64038287],[17.0854037,49.64069641],[17.0865474,49.64100332],[17.08769529,49.64130356],[17.08884728,49.64159712],[17.09000328,49.64188396],[17.09063658,49.64203691],[17.10690168,49.63448845]]]]},"geometry_name":"the_geom","properties":{"AREA":19079209,"PERIMETER":40747,"ICZUJ":"505081","NAZEV":"Senice na Hané","OB91":1791,"OB01":1818,"OB_311202":1827,"NUTS5":"CZ0712505081","NUTS4":"CZ0712","NUTS3":"CZ071","KRAJ1960":"3800","NUTS2":"CZ07","NK":"OL","KODOK":"3805","KODOB":"14745","KO":"1","ICOBCE":"505081","OM":"8","UR":"4","SM":"","PSC":"78345","KODST":"14745","KODFI":"08590","KODMA":"14745","SYOB":558705,"SXOB":1116934,"SYOB1":-558705,"SXOB1":-1116934,"MAPA":"24-22-12","CISPOU":"71051","OKPO":"3805","KODPO":"08590","NAZPO":"Litovel","CISORP":"7105","OKORP":"3805","KODORP":"08590","NAZORP":"Litovel","NAZEV_ENG":"Senice na Hane","NAZPO_ENG":"Litovel","NAZORP_ENG":"Litovel"}},{"type":"Feature","id":"obceORP_clip.14","geometry":{"type":"MultiPolygon","coordinates":[[[[17.09400316,49.5781808],[17.09429139,49.57566919],[17.1124516,49.5750059],[17.11044524,49.57354506],[17.11350114,49.57045674],[17.11814261,49.57025648],[17.11873689,49.56851518],[17.12222306,49.56805791],[17.12475101,49.56648005],[17.12502079,49.56366901],[17.11860683,49.56047202],[17.11980398,49.55692673],[17.10847318,49.55447152],[17.1066168,49.55247815],[17.10863542,49.54510986],[17.10300771,49.54436777],[17.10114153,49.55452077],[17.09342815,49.55355013],[17.07184179,49.55942395],[17.06997975,49.55453725],[17.06375212,49.5560764],[17.05857473,49.55744999],[17.05626576,49.56135495],[17.05797723,49.56426154],[17.07087232,49.56457483],[17.08840105,49.56890793],[17.08841375,49.57881458],[17.09400316,49.5781808]]]]},"geometry_name":"the_geom","properties":{"AREA":7892332,"PERIMETER":16398,"ICZUJ":"505111","NAZEV":"Slatinice","OB91":1330,"OB01":1405,"OB_311202":1444,"NUTS5":"CZ0712505111","NUTS4":"CZ0712","NUTS3":"CZ071","KRAJ1960":"3800","NUTS2":"CZ07","NK":"OL","KODOK":"3805","KODOB":"14981","KO":"1","ICOBCE":"505111","OM":"8","UR":"4","SM":"","PSC":"78342","KODST":"08912","KODFI":"11050","KODMA":"08912","SYOB":558390,"SXOB":1123948,"SYOB1":-558390,"SXOB1":-1123948,"MAPA":"24-22-22","CISPOU":"71072","OKPO":"3805","KODPO":"11050","NAZPO":"Olomouc","CISORP":"7107","OKORP":"3805","KODORP":"11050","NAZORP":"Olomouc","NAZEV_ENG":"Slatinice","NAZPO_ENG":"Olomouc","NAZORP_ENG":"Olomouc"}},{"type":"Feature","id":"obceORP_clip.15","geometry":{"type":"MultiPolygon","coordinates":[[[[17.14548295,49.61560544],[17.15245541,49.61492377],[17.1518721,49.61128872],[17.15787311,49.61095882],[17.16725524,49.61031432],[17.16744721,49.60845168],[17.17094246,49.60761835],[17.17441855,49.60690792],[17.16944863,49.60670735],[17.16846034,49.60501832],[17.16899258,49.6026583],[17.16678035,49.60208888],[17.1671679,49.60010799],[17.16478262,49.59963565],[17.16354807,49.59695216],[17.15634968,49.59643565],[17.15605315,49.59434669],[17.15168941,49.59394324],[17.14651079,49.58819929],[17.13385028,49.58463866],[17.12918234,49.58596759],[17.12324444,49.5810039],[17.1145614,49.5823029],[17.11033228,49.57991834],[17.11260795,49.57855],[17.1124516,49.5750059],[17.09429139,49.57566919],[17.09400316,49.5781808],[17.09430998,49.5859738],[17.09915125,49.58726962],[17.09779244,49.5908674],[17.09853871,49.59488434],[17.10473024,49.5947235],[17.10517215,49.6020914],[17.10751823,49.60502974],[17.1142883,49.60430995],[17.1236278,49.60577423],[17.12655351,49.60405971],[17.12800021,49.60582679],[17.13189026,49.60505218],[17.13381358,49.61003167],[17.13766086,49.60991378],[17.1370392,49.61448206],[17.14306687,49.6163959],[17.14548295,49.61560544]]]]},"geometry_name":"the_geom","properties":{"AREA":12696773,"PERIMETER":19404,"ICZUJ":"505269","NAZEV":"Tìetice","OB91":1216,"OB01":1238,"OB_311202":1215,"NUTS5":"CZ0712505269","NUTS4":"CZ0712","NUTS3":"CZ071","KRAJ1960":"3800","NUTS2":"CZ07","NK":"OL","KODOK":"3805","KODOB":"16670","KO":"7","ICOBCE":"505269","OM":"8","UR":"4","SM":"","PSC":"78346","KODST":"08912","KODFI":"11050","KODMA":"16670","SYOB":556154,"SXOB":1120640,"SYOB1":-556154,"SXOB1":-1120640,"MAPA":"24-22-17","CISPOU":"71072","OKPO":"3805","KODPO":"11050","NAZPO":"Olomouc","CISORP":"7107","OKORP":"3805","KODORP":"11050","NAZORP":"Olomouc","NAZEV_ENG":"Tesetice","NAZPO_ENG":"Olomouc","NAZORP_ENG":"Olomouc"}},{"type":"Feature","id":"obceORP_clip.16","geometry":{"type":"MultiPolygon","coordinates":[[[[17.10690168,49.63448845],[17.09063658,49.64203691],[17.09116319,49.64216408],[17.09232693,49.64243744],[17.09349439,49.64270402],[17.09466549,49.64296381],[17.09584013,49.64321677],[17.09701822,49.6434629],[17.09819965,49.64370216],[17.09938435,49.64393455],[17.10057221,49.64416004],[17.10176313,49.64437862],[17.10295703,49.64459026],[17.1041538,49.64479496],[17.10535335,49.64499268],[17.10584901,49.64507133],[17.11056811,49.64255659],[17.10804812,49.63822425],[17.11003035,49.63750526],[17.10690168,49.63448845]]]]},"geometry_name":"the_geom","properties":{"AREA":3337418,"PERIMETER":8477,"ICZUJ":"552071","NAZEV":"Dubèany","OB91":233,"OB01":208,"OB_311202":206,"NUTS5":"CZ0712552071","NUTS4":"CZ0712","NUTS3":"CZ071","KRAJ1960":"3800","NUTS2":"CZ07","NK":"OL","KODOK":"3805","KODOB":"05234","KO":"5","ICOBCE":"552071","OM":"8","UR":"4","SM":"","PSC":"78322","KODST":"14745","KODFI":"08590","KODMA":"05235","SYOB":558921,"SXOB":1114094,"SYOB1":-558921,"SXOB1":-1114094,"MAPA":"24-22-07","CISPOU":"71051","OKPO":"3805","KODPO":"08590","NAZPO":"Litovel","CISORP":"7105","OKORP":"3805","KODORP":"08590","NAZORP":"Litovel","NAZEV_ENG":"Dubcany","NAZPO_ENG":"Litovel","NAZORP_ENG":"Litovel"}},{"type":"Feature","id":"obceORP_clip.17","geometry":{"type":"MultiPolygon","coordinates":[[[[17.18997112,49.64126594],[17.18703569,49.63945978],[17.18795372,49.63445339],[17.17920117,49.63001815],[17.17744759,49.6274931],[17.17418356,49.6288524],[17.16764898,49.62487389],[17.17093079,49.62279299],[17.16659574,49.61940992],[17.16250161,49.6159961],[17.158126,49.61627342],[17.15787311,49.61095882],[17.1518721,49.61128872],[17.15245541,49.61492377],[17.14548295,49.61560544],[17.14569894,49.61721469],[17.16112233,49.62878599],[17.16340861,49.62893554],[17.16479481,49.62974803],[17.16743456,49.63299319],[17.16810606,49.63665188],[17.16733247,49.641897],[17.16859408,49.64379135],[17.16379738,49.64616849],[17.16427913,49.64611118],[17.16549445,49.64595929],[17.16670761,49.64580034],[17.16791854,49.64563435],[17.16912712,49.64546132],[17.17033326,49.64528127],[17.17153687,49.64509422],[17.17273784,49.64490017],[17.17393609,49.64469915],[17.17513151,49.64449118],[17.17632401,49.64427626],[17.1775135,49.64405441],[17.17869987,49.64382566],[17.17988304,49.64359003],[17.1810629,49.64334752],[17.18223937,49.64309816],[17.18341234,49.64284197],[17.18458174,49.64257898],[17.18574745,49.64230919],[17.18690939,49.64203264],[17.18806746,49.64174934],[17.18922157,49.64145933],[17.18997112,49.64126594]]]]},"geometry_name":"the_geom","properties":{"AREA":7634018,"PERIMETER":17449,"ICZUJ":"552151","NAZEV":"Skrbeò","OB91":983,"OB01":1036,"OB_311202":1043,"NUTS5":"CZ0712552151","NUTS4":"CZ0712","NUTS3":"CZ071","KRAJ1960":"3800","NUTS2":"CZ07","NK":"OL","KODOK":"3805","KODOB":"14861","KO":"0","ICOBCE":"552151","OM":"8","UR":"4","SM":"","PSC":"78335","KODST":"11050","KODFI":"11050","KODMA":"04206","SYOB":551993,"SXOB":1115697,"SYOB1":-551993,"SXOB1":-1115697,"MAPA":"24-22-08","CISPOU":"71072","OKPO":"3805","KODPO":"11050","NAZPO":"Olomouc","CISORP":"7107","OKORP":"3805","KODORP":"11050","NAZORP":"Olomouc","NAZEV_ENG":"Skrben","NAZPO_ENG":"Olomouc","NAZORP_ENG":"Olomouc"}},{"type":"Feature","id":"obceORP_clip.18","geometry":{"type":"MultiPolygon","coordinates":[[[[17.13385028,49.58463866],[17.13982927,49.57663561],[17.13774237,49.57487177],[17.1384005,49.5710379],[17.13411533,49.57231076],[17.12772672,49.56945949],[17.12223137,49.56921529],[17.12222306,49.56805791],[17.11873689,49.56851518],[17.11814261,49.57025648],[17.11350114,49.57045674],[17.11044524,49.57354506],[17.1124516,49.5750059],[17.11260795,49.57855],[17.11033228,49.57991834],[17.1145614,49.5823029],[17.12324444,49.5810039],[17.12918234,49.58596759],[17.13385028,49.58463866]]]]},"geometry_name":"the_geom","properties":{"AREA":2664081,"PERIMETER":7248,"ICZUJ":"552216","NAZEV":"Lubìnice","OB91":409,"OB01":405,"OB_311202":414,"NUTS5":"CZ0712552216","NUTS4":"CZ0712","NUTS3":"CZ071","KRAJ1960":"3800","NUTS2":"CZ07","NK":"OL","KODOK":"3805","KODOB":"08795","KO":"5","ICOBCE":"552216","OM":"8","UR":"4","SM":"","PSC":"78346","KODST":"08912","KODFI":"11050","KODMA":"08912","SYOB":556747,"SXOB":1122480,"SYOB1":-556747,"SXOB1":-1122480,"MAPA":"24-22-17","CISPOU":"71072","OKPO":"3805","KODPO":"11050","NAZPO":"Olomouc","CISORP":"7107","OKORP":"3805","KODORP":"11050","NAZORP":"Olomouc","NAZEV_ENG":"Lubenice","NAZPO_ENG":"Olomouc","NAZORP_ENG":"Olomouc"}},{"type":"Feature","id":"obceORP_clip.19","geometry":{"type":"MultiPolygon","coordinates":[[[[17.13381358,49.61003167],[17.13189026,49.60505218],[17.12800021,49.60582679],[17.12655351,49.60405971],[17.1236278,49.60577423],[17.1142883,49.60430995],[17.10751823,49.60502974],[17.10517215,49.6020914],[17.10473024,49.5947235],[17.09853871,49.59488434],[17.09779244,49.5908674],[17.0958202,49.59107158],[17.08939273,49.59163207],[17.08660168,49.5963191],[17.08200994,49.59632273],[17.08204826,49.59818713],[17.07594973,49.60154345],[17.07538057,49.60461492],[17.07750748,49.60661757],[17.08361708,49.60769055],[17.09009723,49.60669084],[17.09129647,49.61049373],[17.08782998,49.61058104],[17.0882983,49.61372107],[17.09919394,49.61146701],[17.10187114,49.61273721],[17.11445371,49.60883972],[17.1196915,49.61495959],[17.12555202,49.61341102],[17.12853686,49.61431217],[17.13263121,49.6134244],[17.13381358,49.61003167]]]]},"geometry_name":"the_geom","properties":{"AREA":5181193,"PERIMETER":13770,"ICZUJ":"552232","NAZEV":"Louèany","OB91":591,"OB01":607,"OB_311202":617,"NUTS5":"CZ0712552232","NUTS4":"CZ0712","NUTS3":"CZ071","KRAJ1960":"3800","NUTS2":"CZ07","NK":"OL","KODOK":"3805","KODOB":"08692","KO":"4","ICOBCE":"552232","OM":"8","UR":"4","SM":"","PSC":"78344","KODST":"10154","KODFI":"11050","KODMA":"10154","SYOB":559178,"SXOB":1119358,"SYOB1":-559178,"SXOB1":-1119358,"MAPA":"24-22-17","CISPOU":"71072","OKPO":"3805","KODPO":"11050","NAZPO":"Olomouc","CISORP":"7107","OKORP":"3805","KODORP":"11050","NAZORP":"Olomouc","NAZEV_ENG":"Loucany","NAZPO_ENG":"Olomouc","NAZORP_ENG":"Olomouc"}},{"type":"Feature","id":"obceORP_clip.20","geometry":{"type":"MultiPolygon","coordinates":[[[[17.04761607,49.62537056],[17.04776709,49.62545714],[17.04870196,49.62598347],[17.04964405,49.62650435],[17.05059329,49.62701973],[17.0515496,49.62752957],[17.05251291,49.62803383],[17.05348313,49.62853247],[17.0544602,49.62902545],[17.05544404,49.62951273],[17.05643455,49.62999427],[17.05743168,49.63047003],[17.05843532,49.63093997],[17.05944542,49.63140406],[17.06046187,49.63186226],[17.06148462,49.63231453],[17.06251356,49.63276084],[17.06354862,49.63320114],[17.06458971,49.63363541],[17.06563676,49.63406361],[17.06668968,49.63448571],[17.06774838,49.63490166],[17.06881279,49.63531145],[17.0698828,49.63571503],[17.07095834,49.63611237],[17.07203933,49.63650344],[17.07249582,49.63666513],[17.07274398,49.63667062],[17.07443843,49.63474012],[17.08157842,49.6365861],[17.08210065,49.63858187],[17.08984609,49.64023232],[17.09035313,49.63694887],[17.09950197,49.63599804],[17.09643566,49.63041825],[17.08515145,49.6335595],[17.08099543,49.63016668],[17.07214593,49.62937337],[17.07082778,49.62631254],[17.05203544,49.62661235],[17.04761607,49.62537056]]]]},"geometry_name":"the_geom","properties":{"AREA":5350498,"PERIMETER":13866,"ICZUJ":"552267","NAZEV":"Senièka","OB91":316,"OB01":338,"OB_311202":341,"NUTS5":"CZ0712552267","NUTS4":"CZ0712","NUTS3":"CZ071","KRAJ1960":"3800","NUTS2":"CZ07","NK":"OL","KODOK":"3805","KODOB":"14747","KO":"8","ICOBCE":"552267","OM":"8","UR":"4","SM":"","PSC":"78345","KODST":"14745","KODFI":"08590","KODMA":"14745","SYOB":560732,"SXOB":1115810,"SYOB1":-560732,"SXOB1":-1115810,"MAPA":"24-22-11","CISPOU":"71051","OKPO":"3805","KODPO":"08590","NAZPO":"Litovel","CISORP":"7105","OKORP":"3805","KODORP":"08590","NAZORP":"Litovel","NAZEV_ENG":"Senicka","NAZPO_ENG":"Litovel","NAZORP_ENG":"Litovel"}},{"type":"Feature","id":"obceORP_clip.21","geometry":{"type":"MultiPolygon","coordinates":[[[[17.17441855,49.60690792],[17.17941862,49.60663807],[17.18415933,49.60548128],[17.1840323,49.60468904],[17.17777174,49.60450173],[17.17330021,49.60332849],[17.17156672,49.60109713],[17.1719555,49.59984267],[17.16797417,49.59891361],[17.16693945,49.59017933],[17.17221502,49.58237292],[17.16297786,49.58197638],[17.16347439,49.58071657],[17.1498498,49.57760962],[17.14453737,49.57491131],[17.14409663,49.57308393],[17.1384005,49.5710379],[17.13774237,49.57487177],[17.13982927,49.57663561],[17.13385028,49.58463866],[17.14651079,49.58819929],[17.15168941,49.59394324],[17.15605315,49.59434669],[17.15634968,49.59643565],[17.16354807,49.59695216],[17.16478262,49.59963565],[17.1671679,49.60010799],[17.16678035,49.60208888],[17.16899258,49.6026583],[17.16846034,49.60501832],[17.16944863,49.60670735],[17.17441855,49.60690792]]]]},"geometry_name":"the_geom","properties":{"AREA":4324552,"PERIMETER":13481,"ICZUJ":"552364","NAZEV":"Ústín","OB91":314,"OB01":349,"OB_311202":359,"NUTS5":"CZ0712552364","NUTS4":"CZ0712","NUTS3":"CZ071","KRAJ1960":"3800","NUTS2":"CZ07","NK":"OL","KODOK":"3805","KODOB":"17542","KO":"1","ICOBCE":"552364","OM":"8","UR":"4","SM":"","PSC":"78346","KODST":"08912","KODFI":"11050","KODMA":"16670","SYOB":553956,"SXOB":1121548,"SYOB1":-553956,"SXOB1":-1121548,"MAPA":"24-22-18","CISPOU":"71072","OKPO":"3805","KODPO":"11050","NAZPO":"Olomouc","CISORP":"7107","OKORP":"3805","KODORP":"11050","NAZORP":"Olomouc","NAZEV_ENG":"Ustin","NAZPO_ENG":"Olomouc","NAZORP_ENG":"Olomouc"}},{"type":"Feature","id":"obceORP_clip.22","geometry":{"type":"MultiPolygon","coordinates":[[[[17.2258998,49.62205239],[17.22775442,49.61904612],[17.22649156,49.61806058],[17.22394801,49.61939558],[17.22231266,49.61685866],[17.21596996,49.61360934],[17.22031408,49.61075585],[17.21678356,49.6089542],[17.20740642,49.61001638],[17.20126021,49.60869468],[17.19643,49.6064553],[17.19897914,49.60298859],[17.1903693,49.60457826],[17.18886885,49.60203144],[17.18700706,49.60246125],[17.18754712,49.60418637],[17.1840323,49.60468904],[17.18415933,49.60548128],[17.17941862,49.60663807],[17.17441855,49.60690792],[17.17094246,49.60761835],[17.16744721,49.60845168],[17.16725524,49.61031432],[17.15787311,49.61095882],[17.158126,49.61627342],[17.16250161,49.6159961],[17.16659574,49.61940992],[17.17093079,49.62279299],[17.16764898,49.62487389],[17.17418356,49.6288524],[17.17744759,49.6274931],[17.17920117,49.63001815],[17.17898339,49.62597349],[17.18628095,49.6221684],[17.19428639,49.62252752],[17.19698593,49.62519747],[17.20439317,49.62384514],[17.20537972,49.62243635],[17.20801252,49.62400824],[17.21106112,49.62279673],[17.21367018,49.62498142],[17.21787793,49.62555293],[17.2258998,49.62205239]]]]},"geometry_name":"the_geom","properties":{"AREA":8057667,"PERIMETER":16268,"ICZUJ":"554901","NAZEV":"Køelov-Bøuchotín","OB91":1207,"OB01":1306,"OB_311202":1364,"NUTS5":"CZ0712554901","NUTS4":"CZ0712","NUTS3":"CZ071","KRAJ1960":"3800","NUTS2":"CZ07","NK":"OL","KODOK":"3805","KODOB":"07563","KO":"9","ICOBCE":"554901","OM":"8","UR":"4","SM":"","PSC":"78336","KODST":"11050","KODFI":"11050","KODMA":"11050","SYOB":550631,"SXOB":1118788,"SYOB1":-550631,"SXOB1":-1118788,"MAPA":"24-22-14","CISPOU":"71072","OKPO":"3805","KODPO":"11050","NAZPO":"Olomouc","CISORP":"7107","OKORP":"3805","KODORP":"11050","NAZORP":"Olomouc","NAZEV_ENG":"Krelov-Bruchotin","NAZPO_ENG":"Olomouc","NAZORP_ENG":"Olomouc"}},{"type":"Feature","id":"obceORP_clip.23","geometry":{"type":"MultiPolygon","coordinates":[[[[17.26611234,49.52284963],[17.26587313,49.52248057],[17.26538307,49.52174294],[17.26488292,49.52100819],[17.26437272,49.52027638],[17.2638525,49.51954757],[17.26332232,49.5188218],[17.26278221,49.51809915],[17.26223222,49.51737967],[17.26167239,49.51666342],[17.26110276,49.51595044],[17.26052339,49.51524081],[17.25993432,49.51453458],[17.25933559,49.51383179],[17.25872726,49.51313252],[17.25810937,49.51243681],[17.25748197,49.51174472],[17.25684512,49.51105631],[17.25619886,49.51037163],[17.25554324,49.50969073],[17.25487833,49.50901367],[17.25420416,49.5083405],[17.25352081,49.50767128],[17.25282831,49.50700606],[17.25212673,49.50634489],[17.25141612,49.50568782],[17.25069654,49.50503492],[17.24996805,49.50438622],[17.24923071,49.50374178],[17.24848457,49.50310166],[17.24820399,49.50286536],[17.22952025,49.49832748],[17.22763029,49.49946747],[17.22291911,49.49801338],[17.21875474,49.50132089],[17.21927247,49.50737305],[17.212496,49.5137365],[17.22336607,49.51886292],[17.2293682,49.51904526],[17.23888321,49.52301568],[17.25276922,49.52432257],[17.25596904,49.52257796],[17.26019583,49.52407143],[17.26065989,49.52203217],[17.26611234,49.52284963]]]]},"geometry_name":"the_geom","properties":{"AREA":8764083,"PERIMETER":13319,"ICZUJ":"568872","NAZEV":"Charváty","OB91":685,"OB01":736,"OB_311202":754,"NUTS5":"CZ0712568872","NUTS4":"CZ0712","NUTS3":"CZ071","KRAJ1960":"3800","NUTS2":"CZ07","NK":"OL","KODOK":"3805","KODOB":"05071","KO":"7","ICOBCE":"568872","OM":"8","UR":"4","SM":"","PSC":"78375","KODST":"03327","KODFI":"11050","KODMA":"03327","SYOB":547778,"SXOB":1129842,"SYOB1":-547778,"SXOB1":-1129842,"MAPA":"24-24-04","CISPOU":"71072","OKPO":"3805","KODPO":"11050","NAZPO":"Olomouc","CISORP":"7107","OKORP":"3805","KODORP":"11050","NAZORP":"Olomouc","NAZEV_ENG":"Charvaty","NAZPO_ENG":"Olomouc","NAZORP_ENG":"Olomouc"}},{"type":"Feature","id":"obceORP_clip.24","geometry":{"type":"MultiPolygon","coordinates":[[[[17.16144417,49.50885442],[17.16418076,49.50863622],[17.16516497,49.50485082],[17.17044626,49.50109399],[17.17275744,49.50336915],[17.18074251,49.49385152],[17.18226634,49.49411389],[17.18608185,49.48781152],[17.18117213,49.48562865],[17.175578,49.4756467],[17.16941794,49.47006196],[17.16905357,49.4700075],[17.16784915,49.46983488],[17.16781296,49.46982992],[17.16613354,49.47113249],[17.15365054,49.47149125],[17.15008734,49.47445301],[17.1470357,49.47483079],[17.14447986,49.47030653],[17.14512716,49.46791422],[17.1446361,49.46789917],[17.14340384,49.4678686],[17.14217121,49.4678452],[17.14093831,49.46782896],[17.13970524,49.46781989],[17.13847209,49.467818],[17.13723897,49.46782327],[17.13600596,49.46783571],[17.13477318,49.46785532],[17.13354071,49.4678821],[17.13230866,49.46791604],[17.13107712,49.46795714],[17.12984619,49.4680054],[17.12861596,49.46806082],[17.12738655,49.46812339],[17.12615804,49.4681931],[17.12493053,49.46826996],[17.12370411,49.46835394],[17.1224789,49.46844506],[17.12125498,49.46854329],[17.12003245,49.46864864],[17.1188114,49.46876109],[17.11759195,49.46888064],[17.11637417,49.46900727],[17.11515817,49.46914098],[17.11394405,49.46928175],[17.1127319,49.46942957],[17.11152182,49.46958444],[17.1103139,49.46974634],[17.10910825,49.46991525],[17.10790494,49.47009116],[17.1067041,49.47027407],[17.10550579,49.47046395],[17.10431013,49.47066079],[17.10311721,49.47086457],[17.10192712,49.47107529],[17.10073996,49.47129291],[17.09955582,49.47151743],[17.09837479,49.47174882],[17.09719698,49.47198707],[17.09602246,49.47223216],[17.09485135,49.47248406],[17.09368372,49.47274277],[17.09251967,49.47300826],[17.0913593,49.4732805],[17.0902027,49.47355948],[17.08904995,49.47384517],[17.08790116,49.47413755],[17.08675641,49.4744366],[17.08561579,49.4747423],[17.0844794,49.47505461],[17.08334732,49.47537352],[17.08221964,49.475699],[17.08109646,49.47603102],[17.07997787,49.47636956],[17.07886394,49.47671459],[17.07775478,49.47706608],[17.07665046,49.47742401],[17.07555109,49.47778834],[17.07445673,49.47815906],[17.07336749,49.47853612],[17.07228345,49.47891949],[17.0712047,49.47930916],[17.07051521,49.47956348],[17.07280494,49.48586946],[17.07600829,49.48419303],[17.08535794,49.48473175],[17.08642023,49.48190987],[17.08808377,49.48191165],[17.09042906,49.48777925],[17.09445852,49.48625648],[17.10103558,49.48934891],[17.10976453,49.48985357],[17.11422517,49.48606296],[17.1322783,49.50773317],[17.1390505,49.5061996],[17.14276096,49.51032981],[17.16144417,49.50885442]]]]},"geometry_name":"the_geom","properties":{"AREA":46899627,"PERIMETER":40818,"ICZUJ":"589250","NAZEV":"Prostìjov","OB91":50074,"OB01":48455,"OB_311202":47678,"NUTS5":"CZ0713589250","NUTS4":"CZ0713","NUTS3":"CZ071","KRAJ1960":"3700","NUTS2":"CZ07","NK":"OL","KODOK":"3709","KODOB":"13349","KO":"3","ICOBCE":"589250","OM":"4","UR":"3","SM":"","PSC":"79601","KODST":"13349","KODFI":"13349","KODMA":"13349","SYOB":558538,"SXOB":1133957,"SYOB1":-558538,"SXOB1":-1133957,"MAPA":"24-24-07","CISPOU":"71082","OKPO":"3709","KODPO":"13349","NAZPO":"Prostìjov","CISORP":"7108","OKORP":"3709","KODORP":"13349","NAZORP":"Prostìjov","NAZEV_ENG":"Prostejov","NAZPO_ENG":"Prostejov","NAZORP_ENG":"Prostejov"}},{"type":"Feature","id":"obceORP_clip.25","geometry":{"type":"MultiPolygon","coordinates":[[[[17.04884624,49.49486088],[17.04577242,49.49509908],[17.04614992,49.50137912],[17.04427513,49.50426419],[17.02313541,49.50884706],[17.02277869,49.50888174],[17.02233188,49.50933201],[17.02167133,49.51001089],[17.02102011,49.51069358],[17.02037827,49.51138003],[17.01974586,49.51207019],[17.01912293,49.51276399],[17.01850953,49.51346139],[17.01790571,49.51416233],[17.01731152,49.51486675],[17.016727,49.51557459],[17.01615221,49.51628581],[17.01558719,49.51700034],[17.01503198,49.51771813],[17.01448663,49.51843911],[17.01395119,49.51916324],[17.0134257,49.51989045],[17.01291019,49.52062069],[17.01240471,49.52135389],[17.0119093,49.52209001],[17.01142401,49.52282898],[17.01094887,49.52357073],[17.01076588,49.52386374],[17.0122158,49.52507486],[17.02418868,49.52212351],[17.02429001,49.5236398],[17.01582569,49.52631047],[17.01630037,49.52759863],[17.03832749,49.52188244],[17.03793874,49.51986797],[17.04197218,49.51876279],[17.040618,49.51540955],[17.04294123,49.51483216],[17.04227845,49.51270004],[17.04541575,49.51225819],[17.04962118,49.5050721],[17.04884624,49.49486088]]]]},"geometry_name":"the_geom","properties":{"AREA":6740319,"PERIMETER":16513,"ICZUJ":"589276","NAZEV":"Bílovice-Lutotín","OB91":446,"OB01":491,"OB_311202":491,"NUTS5":"CZ0713589276","NUTS4":"CZ0713","NUTS3":"CZ071","KRAJ1960":"3700","NUTS2":"CZ07","NK":"OL","KODOK":"3709","KODOB":"00453","KO":"7","ICOBCE":"589276","OM":"8","UR":"4","SM":"","PSC":"79841","KODST":"07015","KODFI":"13349","KODMA":"07015","SYOB":563271,"SXOB":1129103,"SYOB1":-563271,"SXOB1":-1129103,"MAPA":"24-24-01","CISPOU":"71082","OKPO":"3709","KODPO":"13349","NAZPO":"Prostìjov","CISORP":"7108","OKORP":"3709","KODORP":"13349","NAZORP":"Prostìjov","NAZEV_ENG":"Bilovice-Lutotin","NAZPO_ENG":"Prostejov","NAZORP_ENG":"Prostejov"}},{"type":"Feature","id":"obceORP_clip.26","geometry":{"type":"MultiPolygon","coordinates":[[[[17.03407948,49.56338612],[17.0381664,49.56415544],[17.04050322,49.56176206],[17.0361267,49.5598708],[17.03900756,49.55766735],[17.0447692,49.55937047],[17.04941019,49.55638002],[17.05082791,49.55723353],[17.05328259,49.55604089],[17.05498852,49.55736543],[17.06051949,49.55565392],[17.06024259,49.55235454],[17.05728503,49.54868729],[17.06462023,49.54569454],[17.06737366,49.54000225],[17.0624076,49.53454774],[17.04208481,49.54822782],[17.03990205,49.5467538],[17.04086845,49.54489288],[17.03024302,49.54576673],[17.02601618,49.54220367],[17.01866648,49.54199331],[17.02026237,49.54531778],[17.01426547,49.54623698],[17.00663466,49.54347612],[17.00559936,49.54131881],[17.00339666,49.54005057],[17.00321783,49.54019839],[17.00313263,49.54047397],[17.00289987,49.54126322],[17.00267794,49.5420538],[17.00246687,49.54284564],[17.00240092,49.54310692],[17.00313109,49.54349484],[17.00222748,49.54380317],[17.00207739,49.54443284],[17.001899,49.54522808],[17.00173154,49.54602432],[17.00157502,49.5468215],[17.00142945,49.54761956],[17.00129484,49.54841843],[17.00117121,49.54921806],[17.00105857,49.55001837],[17.00095691,49.5508193],[17.00086626,49.55162079],[17.00078663,49.55242278],[17.00071801,49.5532252],[17.00066041,49.55402799],[17.00061385,49.55483107],[17.00057832,49.5556344],[17.00055382,49.5564379],[17.00054037,49.55724151],[17.00053795,49.55804517],[17.00054658,49.55884881],[17.00056625,49.55965236],[17.00059696,49.56045577],[17.00063871,49.56125897],[17.00069149,49.5620619],[17.00075531,49.56286448],[17.00083015,49.56366666],[17.00084756,49.56382915],[17.01266772,49.56106288],[17.01659524,49.55641697],[17.01832274,49.55692212],[17.01761625,49.55822404],[17.01901098,49.55902784],[17.03159417,49.56062638],[17.03407948,49.56338612]]]]},"geometry_name":"the_geom","properties":{"AREA":9471258,"PERIMETER":19607,"ICZUJ":"589381","NAZEV":"Èechy pod Kosíøem","OB91":919,"OB01":927,"OB_311202":964,"NUTS5":"CZ0713589381","NUTS4":"CZ0713","NUTS3":"CZ071","KRAJ1960":"3700","NUTS2":"CZ07","NK":"OL","KODOK":"3709","KODOB":"01892","KO":"9","ICOBCE":"589381","OM":"8","UR":"4","SM":"","PSC":"79858","KODST":"07015","KODFI":"13349","KODMA":"01892","SYOB":562990,"SXOB":1124663,"SYOB1":-562990,"SXOB1":-1124663,"MAPA":"24-22-21","CISPOU":"71082","OKPO":"3709","KODPO":"13349","NAZPO":"Prostìjov","CISORP":"7108","OKORP":"3709","KODORP":"13349","NAZORP":"Prostìjov","NAZEV_ENG":"Cechy pod Kosirem","NAZPO_ENG":"Prostejov","NAZORP_ENG":"Prostejov"}},{"type":"Feature","id":"obceORP_clip.27","geometry":{"type":"MultiPolygon","coordinates":[[[[17.1188219,49.53217063],[17.12021051,49.5326056],[17.12258105,49.53019282],[17.12978028,49.53028964],[17.12943157,49.52934484],[17.13287665,49.52996021],[17.13238994,49.52551777],[17.12156019,49.52090015],[17.12078868,49.5172974],[17.11556653,49.51600402],[17.11615452,49.51412676],[17.11289386,49.51309819],[17.1102892,49.51486039],[17.10434501,49.5146847],[17.10395789,49.51336667],[17.09427814,49.50988864],[17.0803313,49.51290571],[17.08077886,49.51576439],[17.08455947,49.51784967],[17.0760998,49.52307358],[17.07685849,49.52435311],[17.07966586,49.52365344],[17.08092001,49.52839131],[17.08281864,49.5298638],[17.07968091,49.53280127],[17.08333612,49.53367609],[17.08167214,49.53648526],[17.08713025,49.53476787],[17.08831605,49.53667209],[17.09036195,49.53652728],[17.0900025,49.53535565],[17.10926902,49.53093493],[17.11557233,49.5329415],[17.1167877,49.53132252],[17.1188219,49.53217063]]]]},"geometry_name":"the_geom","properties":{"AREA":7269920,"PERIMETER":13719,"ICZUJ":"589403","NAZEV":"Èelechovice na Hané","OB91":1141,"OB01":1193,"OB_311202":1223,"NUTS5":"CZ0713589403","NUTS4":"CZ0713","NUTS3":"CZ071","KRAJ1960":"3700","NUTS2":"CZ07","NK":"OL","KODOK":"3709","KODOB":"01934","KO":"8","ICOBCE":"589403","OM":"8","UR":"4","SM":"","PSC":"79816","KODST":"13349","KODFI":"13349","KODMA":"15124","SYOB":559340,"SXOB":1128914,"SYOB1":-559340,"SXOB1":-1128914,"MAPA":"24-24-02","CISPOU":"71082","OKPO":"3709","KODPO":"13349","NAZPO":"Prostìjov","CISORP":"7108","OKORP":"3709","KODORP":"13349","NAZORP":"Prostìjov","NAZEV_ENG":"Celechovice na Hane","NAZPO_ENG":"Prostejov","NAZORP_ENG":"Prostejov"}},{"type":"Feature","id":"obceORP_clip.28","geometry":{"type":"MultiPolygon","coordinates":[[[[17.0122158,49.52507486],[17.01076588,49.52386374],[17.01048391,49.52431523],[17.01002918,49.52506239],[17.00965892,49.525687],[17.0122158,49.52507486]]],[[[17.00559936,49.54131881],[17.01413266,49.53801152],[17.00984781,49.53734546],[17.01067236,49.53564698],[17.00918678,49.53165174],[17.00621895,49.53230092],[17.00605201,49.53266787],[17.00571201,49.53344047],[17.00538263,49.53421501],[17.00506388,49.53499144],[17.0047558,49.53576969],[17.00445841,49.5365497],[17.00417173,49.53733141],[17.0038958,49.53811475],[17.00363062,49.53889967],[17.00337623,49.53968609],[17.00321783,49.54019839],[17.00339666,49.54005057],[17.00559936,49.54131881]]],[[[17.00313109,49.54349484],[17.00240092,49.54310692],[17.00226668,49.54363868],[17.00222748,49.54380317],[17.00313109,49.54349484]]]]},"geometry_name":"the_geom","properties":{"AREA":5308474,"PERIMETER":20181,"ICZUJ":"589501","NAZEV":"Hluchov","OB91":311,"OB01":337,"OB_311202":342,"NUTS5":"CZ0713589501","NUTS4":"CZ0713","NUTS3":"CZ071","KRAJ1960":"3700","NUTS2":"CZ07","NK":"OL","KODOK":"3709","KODOB":"03989","KO":"6","ICOBCE":"589501","OM":"8","UR":"4","SM":"","PSC":"79841","KODST":"07015","KODFI":"13349","KODMA":"01892","SYOB":566052,"SXOB":1125418,"SYOB1":-566052,"SXOB1":-1125418,"MAPA":"24-21-25","CISPOU":"71082","OKPO":"3709","KODPO":"13349","NAZPO":"Prostìjov","CISORP":"7108","OKORP":"3709","KODORP":"13349","NAZORP":"Prostìjov","NAZEV_ENG":"Hluchov","NAZPO_ENG":"Prostejov","NAZORP_ENG":"Prostejov"}},{"type":"Feature","id":"obceORP_clip.29","geometry":{"type":"MultiPolygon","coordinates":[[[[17.22979417,49.49010834],[17.22904167,49.4896817],[17.22810389,49.48915952],[17.22715899,49.4886428],[17.22620707,49.48813161],[17.22524819,49.48762597],[17.22428243,49.48712592],[17.22330987,49.48663151],[17.22233058,49.48614277],[17.22134465,49.48565975],[17.22035215,49.48518247],[17.21935316,49.48471099],[17.21834776,49.48424533],[17.21733603,49.48378554],[17.21631806,49.48333165],[17.21529391,49.4828837],[17.21426368,49.48244171],[17.21322745,49.48200574],[17.2121853,49.48157581],[17.21113731,49.48115195],[17.21008356,49.4807342],[17.20902414,49.4803226],[17.20795914,49.47991717],[17.20688864,49.47951795],[17.20645159,49.47935832],[17.20452193,49.48306969],[17.20622548,49.48324409],[17.20438532,49.48523868],[17.20970232,49.48657048],[17.21040048,49.48873062],[17.22812125,49.49292072],[17.22979417,49.49010834]]]]},"geometry_name":"the_geom","properties":{"AREA":3770511,"PERIMETER":9018,"ICZUJ":"589535","NAZEV":"Hrdiboøice","OB91":253,"OB01":241,"OB_311202":238,"NUTS5":"CZ0713589535","NUTS4":"CZ0713","NUTS3":"CZ071","KRAJ1960":"3700","NUTS2":"CZ07","NK":"OL","KODOK":"3709","KODOB":"04802","KO":"0","ICOBCE":"589535","OM":"8","UR":"4","SM":"","PSC":"79812","KODST":"13349","KODFI":"13349","KODMA":"07244","SYOB":550636,"SXOB":1134015,"SYOB1":-550636,"SXOB1":-1134015,"MAPA":"24-24-09","CISPOU":"71082","OKPO":"3709","KODPO":"13349","NAZPO":"Prostìjov","CISORP":"7108","OKORP":"3709","KODORP":"13349","NAZORP":"Prostìjov","NAZEV_ENG":"Hrdiborice","NAZPO_ENG":"Prostejov","NAZORP_ENG":"Prostejov"}},{"type":"Feature","id":"obceORP_clip.30","geometry":{"type":"MultiPolygon","coordinates":[[[[17.0760998,49.52307358],[17.08455947,49.51784967],[17.08077886,49.51576439],[17.0803313,49.51290571],[17.09427814,49.50988864],[17.09100641,49.50734023],[17.08812531,49.50761946],[17.08409101,49.50164901],[17.0807311,49.50235727],[17.07346989,49.48793824],[17.06812369,49.48767363],[17.0615471,49.48989396],[17.06146998,49.48885842],[17.05772268,49.49008255],[17.05035414,49.48962837],[17.04884624,49.49486088],[17.04962118,49.5050721],[17.04541575,49.51225819],[17.04227845,49.51270004],[17.04294123,49.51483216],[17.040618,49.51540955],[17.04197218,49.51876279],[17.03793874,49.51986797],[17.03832749,49.52188244],[17.01630037,49.52759863],[17.01582569,49.52631047],[17.02429001,49.5236398],[17.02418868,49.52212351],[17.0122158,49.52507486],[17.00965892,49.525687],[17.00958472,49.52581217],[17.00915055,49.5265645],[17.00872672,49.52731933],[17.00831325,49.52807659],[17.00791019,49.52883622],[17.00751756,49.52959817],[17.00713539,49.53036237],[17.00676373,49.53112876],[17.00640259,49.53189728],[17.00621895,49.53230092],[17.00918678,49.53165174],[17.01067236,49.53564698],[17.01651922,49.53536884],[17.01584776,49.53444718],[17.02142512,49.53217124],[17.0273401,49.53287336],[17.04048038,49.53019701],[17.04296545,49.52830165],[17.05918781,49.528513],[17.0760998,49.52307358]]]]},"geometry_name":"the_geom","properties":{"AREA":14077650,"PERIMETER":25219,"ICZUJ":"589632","NAZEV":"Kostelec na Hané","OB91":2688,"OB01":2746,"OB_311202":2816,"NUTS5":"CZ0713589632","NUTS4":"CZ0713","NUTS3":"CZ071","KRAJ1960":"3700","NUTS2":"CZ07","NK":"OL","KODOK":"3709","KODOB":"07015","KO":"7","ICOBCE":"589632","OM":"8","UR":"3","SM":"","PSC":"79841","KODST":"07015","KODFI":"13349","KODMA":"07015","SYOB":561927,"SXOB":1128906,"SYOB1":-561927,"SXOB1":-1128906,"MAPA":"24-24-01","CISPOU":"71082","OKPO":"3709","KODPO":"13349","NAZPO":"Prostìjov","CISORP":"7108","OKORP":"3709","KODORP":"13349","NAZORP":"Prostìjov","NAZEV_ENG":"Kostelec na Hane","NAZPO_ENG":"Prostejov","NAZORP_ENG":"Prostejov"}},{"type":"Feature","id":"obceORP_clip.31","geometry":{"type":"MultiPolygon","coordinates":[[[[17.15324338,49.46831353],[17.15201644,49.4682329],[17.15078845,49.46815941],[17.1495595,49.46809305],[17.14832969,49.46803385],[17.14709912,49.4679818],[17.14586789,49.46793691],[17.14512716,49.46791422],[17.14447986,49.47030653],[17.1470357,49.47483079],[17.15008734,49.47445301],[17.15365054,49.47149125],[17.16613354,49.47113249],[17.16781296,49.46982992],[17.16664241,49.46966927],[17.16543347,49.46951068],[17.1642224,49.46935913],[17.16300931,49.46921462],[17.1617943,49.46907717],[17.16057745,49.46894679],[17.15935888,49.4688235],[17.15813866,49.46870729],[17.15691691,49.46859818],[17.15569371,49.46849618],[17.15446917,49.46840129],[17.15324338,49.46831353]]],[[[17.17025558,49.47018712],[17.16941794,49.47006196],[17.175578,49.4756467],[17.18117213,49.48562865],[17.18608185,49.48781152],[17.19324292,49.488614],[17.19844705,49.48379376],[17.20452193,49.48306969],[17.20645159,49.47935832],[17.20581271,49.47912497],[17.20473146,49.47873826],[17.20364497,49.47835786],[17.20255331,49.47798378],[17.20145659,49.47761607],[17.20035488,49.47725475],[17.19924828,49.47689985],[17.19813686,49.47655139],[17.19702073,49.47620942],[17.19589997,49.47587394],[17.19477467,49.475545],[17.19364491,49.47522261],[17.19251079,49.4749068],[17.1913724,49.4745976],[17.19022983,49.47429503],[17.18908317,49.47399911],[17.1879325,49.47370988],[17.18677793,49.47342734],[17.18561955,49.47315153],[17.18445744,49.47288247],[17.1832917,49.47262017],[17.18212242,49.47236466],[17.18094969,49.47211596],[17.17977362,49.47187409],[17.17859428,49.47163906],[17.17741178,49.47141091],[17.17622621,49.47118963],[17.17503766,49.47097526],[17.17384622,49.47076781],[17.172652,49.47056729],[17.17145509,49.47037372],[17.17025558,49.47018712]]]]},"geometry_name":"the_geom","properties":{"AREA":12578107,"PERIMETER":19991,"ICZUJ":"589659","NAZEV":"Kralice na Hané","OB91":1327,"OB01":1399,"OB_311202":1431,"NUTS5":"CZ0713589659","NUTS4":"CZ0713","NUTS3":"CZ071","KRAJ1960":"3700","NUTS2":"CZ07","NK":"OL","KODOK":"3709","KODOB":"07244","KO":"3","ICOBCE":"589659","OM":"8","UR":"4","SM":"","PSC":"79812","KODST":"13349","KODFI":"13349","KODMA":"07244","SYOB":553688,"SXOB":1135443,"SYOB1":-553688,"SXOB1":-1135443,"MAPA":"24-24-13","CISPOU":"71082","OKPO":"3709","KODPO":"13349","NAZPO":"Prostìjov","CISORP":"7108","OKORP":"3709","KODORP":"13349","NAZORP":"Prostìjov","NAZEV_ENG":"Kralice na Hane","NAZPO_ENG":"Prostejov","NAZORP_ENG":"Prostejov"}},{"type":"Feature","id":"obceORP_clip.32","geometry":{"type":"MultiPolygon","coordinates":[[[[17.01980099,49.5864326],[17.01780879,49.58355183],[17.01657706,49.5825533],[17.01526887,49.5827767],[17.01478428,49.5818122],[17.01529512,49.58109719],[17.01158167,49.57877025],[17.01095292,49.57912598],[17.01336343,49.58073547],[17.01349163,49.58118356],[17.01212399,49.58156339],[17.00881252,49.5806959],[17.00775454,49.5790558],[17.00506291,49.57849513],[17.00432038,49.57870617],[17.00433495,49.57874654],[17.00462804,49.57952727],[17.00493185,49.58030626],[17.00524637,49.58108346],[17.00557157,49.5818588],[17.00590743,49.58263221],[17.00625391,49.58340364],[17.006611,49.58417303],[17.00697866,49.58494031],[17.00735687,49.58570542],[17.00774558,49.5864683],[17.00814479,49.58722889],[17.00855444,49.58798713],[17.00897452,49.58874296],[17.00940499,49.58949631],[17.0098458,49.59024713],[17.01029694,49.59099536],[17.01075836,49.59174093],[17.01091577,49.59198885],[17.01683339,49.58656],[17.01980099,49.5864326]]]]},"geometry_name":"the_geom","properties":{"AREA":12851954,"PERIMETER":20757,"ICZUJ":"589675","NAZEV":"Lakov","OB91":623,"OB01":591,"OB_311202":588,"NUTS5":"CZ0713589675","NUTS4":"CZ0713","NUTS3":"CZ071","KRAJ1960":"3700","NUTS2":"CZ07","NK":"OL","KODOK":"3709","KODOB":"07920","KO":"1","ICOBCE":"589675","OM":"8","UR":"4","SM":"","PSC":"79857","KODST":"07015","KODFI":"13349","KODMA":"07920","SYOB":565172,"SXOB":1120744,"SYOB1":-565172,"SXOB1":-1120744,"MAPA":"24-22-16","CISPOU":"71082","OKPO":"3709","KODPO":"13349","NAZPO":"Prostìjov","CISORP":"7108","OKORP":"3709","KODORP":"13349","NAZORP":"Prostìjov","NAZEV_ENG":"Laskov","NAZPO_ENG":"Prostejov","NAZORP_ENG":"Prostejov"}},{"type":"Feature","id":"obceORP_clip.33","geometry":{"type":"MultiPolygon","coordinates":[[[[17.04577242,49.49509908],[17.04591946,49.49115942],[17.04528417,49.49153595],[17.04437906,49.49208209],[17.04348146,49.49263347],[17.04259144,49.49319005],[17.04170907,49.49375178],[17.04083443,49.49431862],[17.03996757,49.49489052],[17.03910858,49.49546744],[17.03825752,49.49604933],[17.03741446,49.49663614],[17.03657947,49.49722784],[17.0357526,49.49782436],[17.03493394,49.49842567],[17.03412354,49.49903171],[17.03332147,49.49964244],[17.03252779,49.50025781],[17.03174257,49.50087778],[17.03096586,49.50150228],[17.03019774,49.50213127],[17.02943826,49.5027647],[17.02868749,49.50340252],[17.02794548,49.50404469],[17.02721229,49.50469114],[17.02648798,49.50534183],[17.02577262,49.5059967],[17.02506625,49.50665571],[17.02436894,49.5073188],[17.02368073,49.50798591],[17.02300169,49.508657],[17.02277869,49.50888174],[17.02313541,49.50884706],[17.04427513,49.50426419],[17.04614992,49.50137912],[17.04577242,49.49509908]]]]},"geometry_name":"the_geom","properties":{"AREA":5494657,"PERIMETER":11802,"ICZUJ":"589683","NAZEV":"Leany","OB91":373,"OB01":366,"OB_311202":364,"NUTS5":"CZ0713589683","NUTS4":"CZ0713","NUTS3":"CZ071","KRAJ1960":"3700","NUTS2":"CZ07","NK":"OL","KODOK":"3709","KODOB":"08042","KO":"0","ICOBCE":"589683","OM":"8","UR":"4","SM":"","PSC":"79842","KODST":"07015","KODFI":"13349","KODMA":"07015","SYOB":564551,"SXOB":1130236,"SYOB1":-564551,"SXOB1":-1130236,"MAPA":"24-24-06","CISPOU":"71082","OKPO":"3709","KODPO":"13349","NAZPO":"Prostìjov","CISORP":"7108","OKORP":"3709","KODORP":"13349","NAZORP":"Prostìjov","NAZEV_ENG":"Lesany","NAZPO_ENG":"Prostejov","NAZORP_ENG":"Prostejov"}},{"type":"Feature","id":"obceORP_clip.34","geometry":{"type":"MultiPolygon","coordinates":[[[[17.04884624,49.49486088],[17.05035414,49.48962837],[17.05772268,49.49008255],[17.06146998,49.48885842],[17.0615471,49.48989396],[17.06812369,49.48767363],[17.07346989,49.48793824],[17.07280494,49.48586946],[17.07051521,49.47956348],[17.07013131,49.47970508],[17.06906338,49.48010723],[17.068001,49.48051557],[17.06694423,49.48093007],[17.06589318,49.48135069],[17.06484792,49.48177742],[17.06380854,49.4822102],[17.06277512,49.48264901],[17.06174774,49.48309381],[17.06072649,49.48354456],[17.05971144,49.48400124],[17.05870268,49.4844638],[17.05770028,49.4849322],[17.05670434,49.48540642],[17.05571491,49.4858864],[17.05473209,49.48637212],[17.05375596,49.48686354],[17.05278659,49.48736061],[17.05182405,49.4878633],[17.05086843,49.48837156],[17.0499198,49.48888536],[17.04897824,49.48940465],[17.04804382,49.4899294],[17.04711662,49.49045956],[17.04619671,49.49099509],[17.04591946,49.49115942],[17.04577242,49.49509908],[17.04884624,49.49486088]]]]},"geometry_name":"the_geom","properties":{"AREA":8100341,"PERIMETER":16429,"ICZUJ":"589730","NAZEV":"Mostkovice","OB91":1315,"OB01":1300,"OB_311202":1302,"NUTS5":"CZ0713589730","NUTS4":"CZ0713","NUTS3":"CZ071","KRAJ1960":"3700","NUTS2":"CZ07","NK":"OL","KODOK":"3709","KODOB":"09987","KO":"2","ICOBCE":"589730","OM":"8","UR":"4","SM":"","PSC":"79802","KODST":"13349","KODFI":"13349","KODMA":"13349","SYOB":562841,"SXOB":1133489,"SYOB1":-562841,"SXOB1":-1133489,"MAPA":"24-24-06","CISPOU":"71082","OKPO":"3709","KODPO":"13349","NAZPO":"Prostìjov","CISORP":"7108","OKORP":"3709","KODORP":"13349","NAZORP":"Prostìjov","NAZEV_ENG":"Mostkovice","NAZPO_ENG":"Prostejov","NAZORP_ENG":"Prostejov"}},{"type":"Feature","id":"obceORP_clip.35","geometry":{"type":"MultiPolygon","coordinates":[[[[17.16502078,49.55001894],[17.17901146,49.54385839],[17.1748718,49.53824668],[17.18115822,49.5363172],[17.18599079,49.52583375],[17.17118407,49.52176542],[17.17369196,49.51933593],[17.16133701,49.51559834],[17.14885896,49.515891],[17.13850888,49.52039832],[17.13238994,49.52551777],[17.13287665,49.52996021],[17.12943157,49.52934484],[17.12978028,49.53028964],[17.13437449,49.54535051],[17.15311929,49.5467987],[17.15405848,49.54928686],[17.16329608,49.55481321],[17.16562802,49.55401703],[17.16502078,49.55001894]]]]},"geometry_name":"the_geom","properties":{"AREA":11352672,"PERIMETER":14403,"ICZUJ":"589829","NAZEV":"Olany u Prostìjova","OB91":1414,"OB01":1407,"OB_311202":1420,"NUTS5":"CZ0713589829","NUTS4":"CZ0713","NUTS3":"CZ071","KRAJ1960":"3700","NUTS2":"CZ07","NK":"OL","KODOK":"3709","KODOB":"11111","KO":"2","ICOBCE":"589829","OM":"8","UR":"4","SM":"","PSC":"79814","KODST":"13349","KODFI":"13349","KODMA":"13349","SYOB":554017,"SXOB":1127196,"SYOB1":-554017,"SXOB1":-1127196,"MAPA":"24-24-03","CISPOU":"71082","OKPO":"3709","KODPO":"13349","NAZPO":"Prostìjov","CISORP":"7108","OKORP":"3709","KODORP":"13349","NAZORP":"Prostìjov","NAZEV_ENG":"Olsany u Prostejova","NAZPO_ENG":"Prostejov","NAZORP_ENG":"Prostejov"}},{"type":"Feature","id":"obceORP_clip.36","geometry":{"type":"MultiPolygon","coordinates":[[[[17.03407948,49.56338612],[17.03159417,49.56062638],[17.01901098,49.55902784],[17.01761625,49.55822404],[17.01832274,49.55692212],[17.01659524,49.55641697],[17.01266772,49.56106288],[17.00084756,49.56382915],[17.00091602,49.56446837],[17.0010129,49.56526956],[17.00112079,49.56607014],[17.00123968,49.56687007],[17.00136957,49.56766928],[17.00151043,49.56846769],[17.00166227,49.56926526],[17.00182507,49.57006191],[17.00199881,49.57085758],[17.00218349,49.57165221],[17.00237908,49.57244574],[17.00258558,49.57323809],[17.00280297,49.57402921],[17.00303123,49.57481904],[17.00327034,49.57560751],[17.00352029,49.57639456],[17.00378106,49.57718012],[17.00405262,49.57796413],[17.00432038,49.57870617],[17.00506291,49.57849513],[17.00775454,49.5790558],[17.00881252,49.5806959],[17.01212399,49.58156339],[17.01349163,49.58118356],[17.01336343,49.58073547],[17.01095292,49.57912598],[17.01158167,49.57877025],[17.01529512,49.58109719],[17.01478428,49.5818122],[17.01526887,49.5827767],[17.01657706,49.5825533],[17.01780879,49.58355183],[17.0185435,49.5804824],[17.03127797,49.57173216],[17.03060033,49.56706814],[17.03407948,49.56338612]]]]},"geometry_name":"the_geom","properties":{"AREA":5654952,"PERIMETER":12123,"ICZUJ":"589870","NAZEV":"Pìnèín","OB91":728,"OB01":722,"OB_311202":745,"NUTS5":"CZ0713589870","NUTS4":"CZ0713","NUTS3":"CZ071","KRAJ1960":"3700","NUTS2":"CZ07","NK":"OL","KODOK":"3709","KODOB":"11920","KO":"2","ICOBCE":"589870","OM":"8","UR":"4","SM":"","PSC":"79857","KODST":"07015","KODFI":"13349","KODMA":"07920","SYOB":564572,"SXOB":1122686,"SYOB1":-564572,"SXOB1":-1122686,"MAPA":"24-22-21","CISPOU":"71082","OKPO":"3709","KODPO":"13349","NAZPO":"Prostìjov","CISORP":"7108","OKORP":"3709","KODORP":"13349","NAZORP":"Prostìjov","NAZEV_ENG":"Pencin","NAZPO_ENG":"Prostejov","NAZORP_ENG":"Prostejov"}},{"type":"Feature","id":"obceORP_clip.37","geometry":{"type":"MultiPolygon","coordinates":[[[[17.10863542,49.54510986],[17.1188219,49.53217063],[17.1167877,49.53132252],[17.11557233,49.5329415],[17.10926902,49.53093493],[17.0900025,49.53535565],[17.09036195,49.53652728],[17.08831605,49.53667209],[17.08713025,49.53476787],[17.08167214,49.53648526],[17.08333612,49.53367609],[17.07968091,49.53280127],[17.08281864,49.5298638],[17.08092001,49.52839131],[17.0624076,49.53454774],[17.06737366,49.54000225],[17.06462023,49.54569454],[17.05728503,49.54868729],[17.06024259,49.55235454],[17.06375212,49.5560764],[17.06997975,49.55453725],[17.07184179,49.55942395],[17.09342815,49.55355013],[17.10114153,49.55452077],[17.10300771,49.54436777],[17.10863542,49.54510986]]]]},"geometry_name":"the_geom","properties":{"AREA":8369977,"PERIMETER":15458,"ICZUJ":"590011","NAZEV":"Slatinky","OB91":416,"OB01":433,"OB_311202":449,"NUTS5":"CZ0713590011","NUTS4":"CZ0713","NUTS3":"CZ071","KRAJ1960":"3700","NUTS2":"CZ07","NK":"OL","KODOK":"3709","KODOB":"14982","KO":"9","ICOBCE":"590011","OM":"8","UR":"4","SM":"","PSC":"78342","KODST":"13349","KODFI":"13349","KODMA":"15124","SYOB":558962,"SXOB":1125328,"SYOB1":-558962,"SXOB1":-1125328,"MAPA":"24-22-22","CISPOU":"71082","OKPO":"3709","KODPO":"13349","NAZPO":"Prostìjov","CISORP":"7108","OKORP":"3709","KODORP":"13349","NAZORP":"Prostìjov","NAZEV_ENG":"Slatinky","NAZPO_ENG":"Prostejov","NAZORP_ENG":"Prostejov"}},{"type":"Feature","id":"obceORP_clip.38","geometry":{"type":"MultiPolygon","coordinates":[[[[17.16133701,49.51559834],[17.16144417,49.50885442],[17.14276096,49.51032981],[17.1390505,49.5061996],[17.1322783,49.50773317],[17.11422517,49.48606296],[17.10976453,49.48985357],[17.10103558,49.48934891],[17.09445852,49.48625648],[17.09042906,49.48777925],[17.08808377,49.48191165],[17.08642023,49.48190987],[17.08535794,49.48473175],[17.07600829,49.48419303],[17.07280494,49.48586946],[17.07346989,49.48793824],[17.0807311,49.50235727],[17.08409101,49.50164901],[17.08812531,49.50761946],[17.09100641,49.50734023],[17.09427814,49.50988864],[17.10395789,49.51336667],[17.10434501,49.5146847],[17.1102892,49.51486039],[17.11289386,49.51309819],[17.11615452,49.51412676],[17.11556653,49.51600402],[17.12078868,49.5172974],[17.12156019,49.52090015],[17.13238994,49.52551777],[17.13850888,49.52039832],[17.14885896,49.515891],[17.16133701,49.51559834]]]]},"geometry_name":"the_geom","properties":{"AREA":12408285,"PERIMETER":19979,"ICZUJ":"590029","NAZEV":"Smrice","OB91":1560,"OB01":1562,"OB_311202":1566,"NUTS5":"CZ0713590029","NUTS4":"CZ0713","NUTS3":"CZ071","KRAJ1960":"3700","NUTS2":"CZ07","NK":"OL","KODOK":"3709","KODOB":"15124","KO":"6","ICOBCE":"590029","OM":"8","UR":"4","SM":"","PSC":"79817","KODST":"13349","KODFI":"13349","KODMA":"15124","SYOB":558509,"SXOB":1130180,"SYOB1":-558509,"SXOB1":-1130180,"MAPA":"24-24-02","CISPOU":"71082","OKPO":"3709","KODPO":"13349","NAZPO":"Prostìjov","CISORP":"7108","OKORP":"3709","KODORP":"13349","NAZORP":"Prostìjov","NAZEV_ENG":"Smrzice","NAZPO_ENG":"Prostejov","NAZORP_ENG":"Prostejov"}},{"type":"Feature","id":"obceORP_clip.39","geometry":{"type":"MultiPolygon","coordinates":[[[[17.0624076,49.53454774],[17.08092001,49.52839131],[17.07966586,49.52365344],[17.07685849,49.52435311],[17.0760998,49.52307358],[17.05918781,49.528513],[17.04296545,49.52830165],[17.04048038,49.53019701],[17.0273401,49.53287336],[17.02142512,49.53217124],[17.01584776,49.53444718],[17.01651922,49.53536884],[17.01067236,49.53564698],[17.00984781,49.53734546],[17.01413266,49.53801152],[17.00559936,49.54131881],[17.00663466,49.54347612],[17.01426547,49.54623698],[17.02026237,49.54531778],[17.01866648,49.54199331],[17.02601618,49.54220367],[17.03024302,49.54576673],[17.04086845,49.54489288],[17.03990205,49.5467538],[17.04208481,49.54822782],[17.0624076,49.53454774]]]]},"geometry_name":"the_geom","properties":{"AREA":6274646,"PERIMETER":14995,"ICZUJ":"590053","NAZEV":"Staøechovice","OB91":505,"OB01":537,"OB_311202":534,"NUTS5":"CZ0713590053","NUTS4":"CZ0713","NUTS3":"CZ071","KRAJ1960":"3700","NUTS2":"CZ07","NK":"OL","KODOK":"3709","KODOB":"15528","KO":"4","ICOBCE":"590053","OM":"8","UR":"4","SM":"","PSC":"79841","KODST":"07015","KODFI":"13349","KODMA":"01892","SYOB":562039,"SXOB":1126781,"SYOB1":-562039,"SXOB1":-1126781,"MAPA":"24-24-01","CISPOU":"71082","OKPO":"3709","KODPO":"13349","NAZPO":"Prostìjov","CISORP":"7108","OKORP":"3709","KODORP":"13349","NAZORP":"Prostìjov","NAZEV_ENG":"Starechovice","NAZPO_ENG":"Prostejov","NAZORP_ENG":"Prostejov"}},{"type":"Feature","id":"obceORP_clip.40","geometry":{"type":"MultiPolygon","coordinates":[[[[17.2034632,49.52650429],[17.2021099,49.51910522],[17.20683806,49.51486795],[17.212496,49.5137365],[17.21927247,49.50737305],[17.21875474,49.50132089],[17.22291911,49.49801338],[17.22637286,49.496747],[17.22812125,49.49292072],[17.21040048,49.48873062],[17.20970232,49.48657048],[17.20438532,49.48523868],[17.20622548,49.48324409],[17.20452193,49.48306969],[17.19844705,49.48379376],[17.19324292,49.488614],[17.18608185,49.48781152],[17.18226634,49.49411389],[17.18074251,49.49385152],[17.17275744,49.50336915],[17.17044626,49.50109399],[17.16516497,49.50485082],[17.16418076,49.50863622],[17.16144417,49.50885442],[17.16133701,49.51559834],[17.17369196,49.51933593],[17.17118407,49.52176542],[17.18599079,49.52583375],[17.18942744,49.52275073],[17.2034632,49.52650429]]]]},"geometry_name":"the_geom","properties":{"AREA":13134049,"PERIMETER":16937,"ICZUJ":"590185","NAZEV":"Vrbátky","OB91":1519,"OB01":1518,"OB_311202":1571,"NUTS5":"CZ0713590185","NUTS4":"CZ0713","NUTS3":"CZ071","KRAJ1960":"3700","NUTS2":"CZ07","NK":"OL","KODOK":"3709","KODOB":"18582","KO":"5","ICOBCE":"590185","OM":"8","UR":"4","SM":"","PSC":"79813","KODST":"13349","KODFI":"13349","KODMA":"13349","SYOB":551784,"SXOB":1130595,"SYOB1":-551784,"SXOB1":-1130595,"MAPA":"24-24-04","CISPOU":"71082","OKPO":"3709","KODPO":"13349","NAZPO":"Prostìjov","CISORP":"7108","OKORP":"3709","KODORP":"13349","NAZORP":"Prostìjov","NAZEV_ENG":"Vrbatky","NAZPO_ENG":"Prostejov","NAZORP_ENG":"Prostejov"}}],"totalFeatures":40,"numberMatched":40,"numberReturned":40,"timeStamp":"2026-05-14T13:22:17.787Z","crs":{"type":"name","properties":{"name":"urn:ogc:def:crs:EPSG::4326"}}}
